{"restaurant michelin" : [{ "name" : "Fanny Rey & Jonathan Wahid", "street" : "12, boulevard Mirabeau", "zipcode" : "13210", "city" : "SAINT REMY DE PROVENCE", "tel" : "04 90 92 15 33" },
{ "name" : "JY'S", "street" : "17 r. de la Poissonnerie", "zipcode" : "68000", "city" : "Colmar", "tel" : "03 89 21 53 60" },
{ "name" : "Le Saint-Estève", "street" : "2250 route cézanne D17", "zipcode" : "13100", "city" : "Le Tholonet", "tel" : "04 42 27 10 14" },
{ "name" : "Fanny Rey & Jonathan Wahid", "street" : "12, boulevard Mirabeau", "zipcode" : "13210", "city" : "SAINT REMY DE PROVENCE", "tel" : "04 90 92 15 33" },
{ "name" : "La Table de Franck Putelat", "street" : "80 chemin des Anglais", "zipcode" : "11000", "city" : "Carcassonne", "tel" : "04 68 71 80 80" },
{ "name" : "Agapé", "street" : "51 Rue Jouffroy-d'Abbans", "zipcode" : "75017", "city" : "Paris 17", "tel" : "01 42 27 20 18" },
{ "name" : "Le Pré Catelan", "street" : "Route de Suresnes", "zipcode" : "75016", "city" : "Paris", "tel" : "01 44 14 41 14" },
{ "name" : "Le Pré Catelan", "street" : "Route de Suresnes", "zipcode" : "75016", "city" : "Paris", "tel" : "01 44 14 41 14" },
{ "name" : "Frédéric Doucet", "street" : "2 avenue de la Libération", "zipcode" : "71120", "city" : "Charolles", "tel" : "03 85 24 11 32" },
{ "name" : "Agapé", "street" : "51 Rue Jouffroy-d'Abbans", "zipcode" : "75017", "city" : "Paris 17", "tel" : "01 42 27 20 18" },
{ "name" : "Le 39V", "street" : "39 Avenue George V", "zipcode" : "75008", "city" : "Paris 08", "tel" : "01 56 62 39 05" },
{ "name" : "L'Orangerie du Château", "street" : "1 Avenue du Docteur Jean Laigret", "zipcode" : "41000", "city" : "Blois", "tel" : "02 54 78 05 36" },
{ "name" : "Aigue Marine", "street" : "5 r. M. -Berthelot", "zipcode" : "22220", "city" : "Tréguier", "tel" : "02 96 92 97 00" },
{ "name" : "Le Saint-Estève", "street" : "2250 route cézanne D17", "zipcode" : "13100", "city" : "Le Tholonet", "tel" : "04 42 27 10 14" },
{ "name" : "Les Pêcheurs", "street" : "10 boulevard du Maréchal-Juin", "zipcode" : "06600", "city" : "Antibes", "tel" : "04 92 93 13 30" },
{ "name" : "Frédéric Doucet", "street" : "2 avenue de la Libération", "zipcode" : "71120", "city" : "Charolles", "tel" : "03 85 24 11 32" },
{ "name" : "Christophe Bacquié", "street" : "Hotel du Castellet Route des Hauts du Camp", "zipcode" : "83330", "city" : "Le Castellet", "tel" : "04 94 98 29 69" },
{ "name" : "Agapé", "street" : "51 Rue Jouffroy-d'Abbans", "zipcode" : "75017", "city" : "Paris 17", "tel" : "01 42 27 20 18" },
{ "name" : "Le Restaurant", "street" : "13 rue des Beaux-Arts", "zipcode" : "75006", "city" : "Paris 06", "tel" : "01 44 41 99 01" },
{ "name" : "Le Restaurant", "street" : "13 rue des Beaux-Arts", "zipcode" : "75006", "city" : "Paris 06", "tel" : "01 44 41 99 01" },
{ "name" : "La Table de Franck Putelat", "street" : "80 chemin des Anglais", "zipcode" : "11000", "city" : "Carcassonne", "tel" : "04 68 71 80 80" },
{ "name" : "Paul Bocuse", "street" : "40 Quai de la Plage", "zipcode" : "69660", "city" : "Collonges-au-Mont-d'Or", "tel" : "04 72 42 90 90" },
{ "name" : "JY'S", "street" : "17 r. de la Poissonnerie", "zipcode" : "68000", "city" : "Colmar", "tel" : "03 89 21 53 60" },
{ "name" : "Le Jardin des Remparts", "street" : "10 rue Hôtel-Dieu", "zipcode" : "21200", "city" : "Beaune", "tel" : "03 80 24 79 41" },
{ "name" : "Frédéric Doucet", "street" : "2 avenue de la Libération", "zipcode" : "71120", "city" : "Charolles", "tel" : "03 85 24 11 32" },
{ "name" : "La Table de Franck Putelat", "street" : "80 chemin des Anglais", "zipcode" : "11000", "city" : "Carcassonne", "tel" : "04 68 71 80 80" },
{ "name" : "Le Restaurant", "street" : "13 rue des Beaux-Arts", "zipcode" : "75006", "city" : "Paris 06", "tel" : "01 44 41 99 01" },
{ "name" : "Les Pêcheurs", "street" : "10 boulevard du Maréchal-Juin", "zipcode" : "06600", "city" : "Antibes", "tel" : "04 92 93 13 30" },
{ "name" : "Christophe Bacquié", "street" : "Hotel du Castellet Route des Hauts du Camp", "zipcode" : "83330", "city" : "Le Castellet", "tel" : "04 94 98 29 69" },
{ "name" : "JY'S", "street" : "17 r. de la Poissonnerie", "zipcode" : "68000", "city" : "Colmar", "tel" : "03 89 21 53 60" },
{ "name" : "Agapé", "street" : "51 Rue Jouffroy-d'Abbans", "zipcode" : "75017", "city" : "Paris 17", "tel" : "01 42 27 20 18" },
{ "name" : "Agapé", "street" : "51 Rue Jouffroy-d'Abbans", "zipcode" : "75017", "city" : "Paris 17", "tel" : "01 42 27 20 18" },
{ "name" : "Christophe Bacquié", "street" : "Hotel du Castellet Route des Hauts du Camp", "zipcode" : "83330", "city" : "Le Castellet", "tel" : "04 94 98 29 69" },
{ "name" : "Le Pré Catelan", "street" : "Route de Suresnes", "zipcode" : "75016", "city" : "Paris", "tel" : "01 44 14 41 14" },
{ "name" : "Auberge de l'Île Barbe", "street" : "1 Place Notre-Dame", "zipcode" : "69009", "city" : "Lyon 09", "tel" : "04 78 83 99 49" },
{ "name" : "Auberge de l'Île Barbe", "street" : "1 Place Notre-Dame", "zipcode" : "69009", "city" : "Lyon 09", "tel" : "04 78 83 99 49" },
{ "name" : "Frédéric Doucet", "street" : "2 avenue de la Libération", "zipcode" : "71120", "city" : "Charolles", "tel" : "03 85 24 11 32" },
{ "name" : "L'Orangerie du Château", "street" : "1 Avenue du Docteur Jean Laigret", "zipcode" : "41000", "city" : "Blois", "tel" : "02 54 78 05 36" },
{ "name" : "Frédéric Doucet", "street" : "2 avenue de la Libération", "zipcode" : "71120", "city" : "Charolles", "tel" : "03 85 24 11 32" },
{ "name" : "Le Saint-Estève", "street" : "2250 route cézanne D17", "zipcode" : "13100", "city" : "Le Tholonet", "tel" : "04 42 27 10 14" },
{ "name" : "Le 39V", "street" : "39 Avenue George V", "zipcode" : "75008", "city" : "Paris 08", "tel" : "01 56 62 39 05" },
{ "name" : "La Table de Franck Putelat", "street" : "80 chemin des Anglais", "zipcode" : "11000", "city" : "Carcassonne", "tel" : "04 68 71 80 80" },
{ "name" : "Le Restaurant", "street" : "13 rue des Beaux-Arts", "zipcode" : "75006", "city" : "Paris 06", "tel" : "01 44 41 99 01" },
{ "name" : "Fanny Rey & Jonathan Wahid", "street" : "12, boulevard Mirabeau", "zipcode" : "13210", "city" : "SAINT REMY DE PROVENCE", "tel" : "04 90 92 15 33" },
{ "name" : "Paul Bocuse", "street" : "40 Quai de la Plage", "zipcode" : "69660", "city" : "Collonges-au-Mont-d'Or", "tel" : "04 72 42 90 90" },
{ "name" : "Le Jardin des Remparts", "street" : "10 rue Hôtel-Dieu", "zipcode" : "21200", "city" : "Beaune", "tel" : "03 80 24 79 41" },
{ "name" : "Le Jardin des Remparts", "street" : "10 rue Hôtel-Dieu", "zipcode" : "21200", "city" : "Beaune", "tel" : "03 80 24 79 41" },
{ "name" : "Paul Bocuse", "street" : "40 Quai de la Plage", "zipcode" : "69660", "city" : "Collonges-au-Mont-d'Or", "tel" : "04 72 42 90 90" },
{ "name" : "Le Clarence", "street" : "31 Avenue Franklin Delano Roosevelt", "zipcode" : "75008", "city" : "Paris 08", "tel" : "01 82 82 10 10" },
{ "name" : "Le 39V", "street" : "39 Avenue George V", "zipcode" : "75008", "city" : "Paris 08", "tel" : "01 56 62 39 05" },
{ "name" : "Le 39V", "street" : "39 Avenue George V", "zipcode" : "75008", "city" : "Paris 08", "tel" : "01 56 62 39 05" },
{ "name" : "Le Clarence", "street" : "31 Avenue Franklin Delano Roosevelt", "zipcode" : "75008", "city" : "Paris 08", "tel" : "01 82 82 10 10" },
{ "name" : "Aigue Marine", "street" : "5 r. M. -Berthelot", "zipcode" : "22220", "city" : "Tréguier", "tel" : "02 96 92 97 00" },
{ "name" : "L'Orangerie du Château", "street" : "1 Avenue du Docteur Jean Laigret", "zipcode" : "41000", "city" : "Blois", "tel" : "02 54 78 05 36" },
{ "name" : "Le Pré Catelan", "street" : "Route de Suresnes", "zipcode" : "75016", "city" : "Paris", "tel" : "01 44 14 41 14" },
{ "name" : "Le Restaurant", "street" : "13 rue des Beaux-Arts", "zipcode" : "75006", "city" : "Paris 06", "tel" : "01 44 41 99 01" },
{ "name" : "Le Pré Catelan", "street" : "Route de Suresnes", "zipcode" : "75016", "city" : "Paris", "tel" : "01 44 14 41 14" },
{ "name" : "Le Clarence", "street" : "31 Avenue Franklin Delano Roosevelt", "zipcode" : "75008", "city" : "Paris 08", "tel" : "01 82 82 10 10" },
{ "name" : "Paul Bocuse", "street" : "40 Quai de la Plage", "zipcode" : "69660", "city" : "Collonges-au-Mont-d'Or", "tel" : "04 72 42 90 90" },
{ "name" : "Le Clarence", "street" : "31 Avenue Franklin Delano Roosevelt", "zipcode" : "75008", "city" : "Paris 08", "tel" : "01 82 82 10 10" },
{ "name" : "Le Saint-Estève", "street" : "2250 route cézanne D17", "zipcode" : "13100", "city" : "Le Tholonet", "tel" : "04 42 27 10 14" },
{ "name" : "Le Pré Catelan", "street" : "Route de Suresnes", "zipcode" : "75016", "city" : "Paris", "tel" : "01 44 14 41 14" },
{ "name" : "Le Saint-Estève", "street" : "2250 route cézanne D17", "zipcode" : "13100", "city" : "Le Tholonet", "tel" : "04 42 27 10 14" },
{ "name" : "Restaurant du Palais Royal", "street" : "110 Galerie de Valois - Jardin du Palais Royal", "zipcode" : "75001", "city" : "Paris 01", "tel" : "01 40 20 00 27" },
{ "name" : "Frédéric Doucet", "street" : "2 avenue de la Libération", "zipcode" : "71120", "city" : "Charolles", "tel" : "03 85 24 11 32" },
{ "name" : "Restaurant du Palais Royal", "street" : "110 Galerie de Valois - Jardin du Palais Royal", "zipcode" : "75001", "city" : "Paris 01", "tel" : "01 40 20 00 27" },
{ "name" : "Christophe Bacquié", "street" : "Hotel du Castellet Route des Hauts du Camp", "zipcode" : "83330", "city" : "Le Castellet", "tel" : "04 94 98 29 69" },
{ "name" : "Fanny Rey & Jonathan Wahid", "street" : "12, boulevard Mirabeau", "zipcode" : "13210", "city" : "SAINT REMY DE PROVENCE", "tel" : "04 90 92 15 33" },
{ "name" : "Restaurant du Palais Royal", "street" : "110 Galerie de Valois - Jardin du Palais Royal", "zipcode" : "75001", "city" : "Paris 01", "tel" : "01 40 20 00 27" },
{ "name" : "Christophe Bacquié", "street" : "Hotel du Castellet Route des Hauts du Camp", "zipcode" : "83330", "city" : "Le Castellet", "tel" : "04 94 98 29 69" },
{ "name" : "Le 39V", "street" : "39 Avenue George V", "zipcode" : "75008", "city" : "Paris 08", "tel" : "01 56 62 39 05" },
{ "name" : "JY'S", "street" : "17 r. de la Poissonnerie", "zipcode" : "68000", "city" : "Colmar", "tel" : "03 89 21 53 60" },
{ "name" : "Auberge de l'Île Barbe", "street" : "1 Place Notre-Dame", "zipcode" : "69009", "city" : "Lyon 09", "tel" : "04 78 83 99 49" },
{ "name" : "Paul Bocuse", "street" : "40 Quai de la Plage", "zipcode" : "69660", "city" : "Collonges-au-Mont-d'Or", "tel" : "04 72 42 90 90" },
{ "name" : "Fanny Rey & Jonathan Wahid", "street" : "12, boulevard Mirabeau", "zipcode" : "13210", "city" : "SAINT REMY DE PROVENCE", "tel" : "04 90 92 15 33" },
{ "name" : "La Table de Franck Putelat", "street" : "80 chemin des Anglais", "zipcode" : "11000", "city" : "Carcassonne", "tel" : "04 68 71 80 80" },
{ "name" : "Le Clarence", "street" : "31 Avenue Franklin Delano Roosevelt", "zipcode" : "75008", "city" : "Paris 08", "tel" : "01 82 82 10 10" },
{ "name" : "Le Pré Catelan", "street" : "Route de Suresnes", "zipcode" : "75016", "city" : "Paris", "tel" : "01 44 14 41 14" },
{ "name" : "Le Saint-Estève", "street" : "2250 route cézanne D17", "zipcode" : "13100", "city" : "Le Tholonet", "tel" : "04 42 27 10 14" },
{ "name" : "Paul Bocuse", "street" : "40 Quai de la Plage", "zipcode" : "69660", "city" : "Collonges-au-Mont-d'Or", "tel" : "04 72 42 90 90" },
{ "name" : "Le 39V", "street" : "39 Avenue George V", "zipcode" : "75008", "city" : "Paris 08", "tel" : "01 56 62 39 05" },
{ "name" : "Restaurant du Palais Royal", "street" : "110 Galerie de Valois - Jardin du Palais Royal", "zipcode" : "75001", "city" : "Paris 01", "tel" : "01 40 20 00 27" },
{ "name" : "Les Pêcheurs", "street" : "10 boulevard du Maréchal-Juin", "zipcode" : "06600", "city" : "Antibes", "tel" : "04 92 93 13 30" },
{ "name" : "Christophe Bacquié", "street" : "Hotel du Castellet Route des Hauts du Camp", "zipcode" : "83330", "city" : "Le Castellet", "tel" : "04 94 98 29 69" },
{ "name" : "Agapé", "street" : "51 Rue Jouffroy-d'Abbans", "zipcode" : "75017", "city" : "Paris 17", "tel" : "01 42 27 20 18" },
{ "name" : "Restaurant du Palais Royal", "street" : "110 Galerie de Valois - Jardin du Palais Royal", "zipcode" : "75001", "city" : "Paris 01", "tel" : "01 40 20 00 27" },
{ "name" : "Christophe Bacquié", "street" : "Hotel du Castellet Route des Hauts du Camp", "zipcode" : "83330", "city" : "Le Castellet", "tel" : "04 94 98 29 69" },
{ "name" : "Le Saint-Estève", "street" : "2250 route cézanne D17", "zipcode" : "13100", "city" : "Le Tholonet", "tel" : "04 42 27 10 14" },
{ "name" : "Le Pré Catelan", "street" : "Route de Suresnes", "zipcode" : "75016", "city" : "Paris", "tel" : "01 44 14 41 14" },
{ "name" : "Le Jardin des Remparts", "street" : "10 rue Hôtel-Dieu", "zipcode" : "21200", "city" : "Beaune", "tel" : "03 80 24 79 41" },
{ "name" : "Le Restaurant", "street" : "13 rue des Beaux-Arts", "zipcode" : "75006", "city" : "Paris 06", "tel" : "01 44 41 99 01" },
{ "name" : "Le Saint-Estève", "street" : "2250 route cézanne D17", "zipcode" : "13100", "city" : "Le Tholonet", "tel" : "04 42 27 10 14" },
{ "name" : "Le Clarence", "street" : "31 Avenue Franklin Delano Roosevelt", "zipcode" : "75008", "city" : "Paris 08", "tel" : "01 82 82 10 10" },
{ "name" : "Restaurant du Palais Royal", "street" : "110 Galerie de Valois - Jardin du Palais Royal", "zipcode" : "75001", "city" : "Paris 01", "tel" : "01 40 20 00 27" },
{ "name" : "Restaurant du Palais Royal", "street" : "110 Galerie de Valois - Jardin du Palais Royal", "zipcode" : "75001", "city" : "Paris 01", "tel" : "01 40 20 00 27" },
{ "name" : "Agapé", "street" : "51 Rue Jouffroy-d'Abbans", "zipcode" : "75017", "city" : "Paris 17", "tel" : "01 42 27 20 18" },
{ "name" : "Agapé", "street" : "51 Rue Jouffroy-d'Abbans", "zipcode" : "75017", "city" : "Paris 17", "tel" : "01 42 27 20 18" },
{ "name" : "Les Pêcheurs", "street" : "10 boulevard du Maréchal-Juin", "zipcode" : "06600", "city" : "Antibes", "tel" : "04 92 93 13 30" },
{ "name" : "Aigue Marine", "street" : "5 r. M. -Berthelot", "zipcode" : "22220", "city" : "Tréguier", "tel" : "02 96 92 97 00" },
{ "name" : "Fanny Rey & Jonathan Wahid", "street" : "12, boulevard Mirabeau", "zipcode" : "13210", "city" : "SAINT REMY DE PROVENCE", "tel" : "04 90 92 15 33" },
{ "name" : "Aigue Marine", "street" : "5 r. M. -Berthelot", "zipcode" : "22220", "city" : "Tréguier", "tel" : "02 96 92 97 00" },
{ "name" : "Frédéric Doucet", "street" : "2 avenue de la Libération", "zipcode" : "71120", "city" : "Charolles", "tel" : "03 85 24 11 32" },
{ "name" : "Le Restaurant", "street" : "13 rue des Beaux-Arts", "zipcode" : "75006", "city" : "Paris 06", "tel" : "01 44 41 99 01" },
{ "name" : "L'Orangerie du Château", "street" : "1 Avenue du Docteur Jean Laigret", "zipcode" : "41000", "city" : "Blois", "tel" : "02 54 78 05 36" },
{ "name" : "Aigue Marine", "street" : "5 r. M. -Berthelot", "zipcode" : "22220", "city" : "Tréguier", "tel" : "02 96 92 97 00" },
{ "name" : "Le Jardin des Remparts", "street" : "10 rue Hôtel-Dieu", "zipcode" : "21200", "city" : "Beaune", "tel" : "03 80 24 79 41" },
{ "name" : "Christophe Bacquié", "street" : "Hotel du Castellet Route des Hauts du Camp", "zipcode" : "83330", "city" : "Le Castellet", "tel" : "04 94 98 29 69" },
{ "name" : "Le Jardin des Remparts", "street" : "10 rue Hôtel-Dieu", "zipcode" : "21200", "city" : "Beaune", "tel" : "03 80 24 79 41" },
{ "name" : "Agapé", "street" : "51 Rue Jouffroy-d'Abbans", "zipcode" : "75017", "city" : "Paris 17", "tel" : "01 42 27 20 18" },
{ "name" : "Aigue Marine", "street" : "5 r. M. -Berthelot", "zipcode" : "22220", "city" : "Tréguier", "tel" : "02 96 92 97 00" },
{ "name" : "Le Clarence", "street" : "31 Avenue Franklin Delano Roosevelt", "zipcode" : "75008", "city" : "Paris 08", "tel" : "01 82 82 10 10" },
{ "name" : "Auberge de l'Île Barbe", "street" : "1 Place Notre-Dame", "zipcode" : "69009", "city" : "Lyon 09", "tel" : "04 78 83 99 49" },
{ "name" : "Le Restaurant", "street" : "13 rue des Beaux-Arts", "zipcode" : "75006", "city" : "Paris 06", "tel" : "01 44 41 99 01" },
{ "name" : "Le Clarence", "street" : "31 Avenue Franklin Delano Roosevelt", "zipcode" : "75008", "city" : "Paris 08", "tel" : "01 82 82 10 10" },
{ "name" : "Les Pêcheurs", "street" : "10 boulevard du Maréchal-Juin", "zipcode" : "06600", "city" : "Antibes", "tel" : "04 92 93 13 30" },
{ "name" : "Frédéric Doucet", "street" : "2 avenue de la Libération", "zipcode" : "71120", "city" : "Charolles", "tel" : "03 85 24 11 32" },
{ "name" : "Auberge de l'Île Barbe", "street" : "1 Place Notre-Dame", "zipcode" : "69009", "city" : "Lyon 09", "tel" : "04 78 83 99 49" },
{ "name" : "Paul Bocuse", "street" : "40 Quai de la Plage", "zipcode" : "69660", "city" : "Collonges-au-Mont-d'Or", "tel" : "04 72 42 90 90" },
{ "name" : "Fanny Rey & Jonathan Wahid", "street" : "12, boulevard Mirabeau", "zipcode" : "13210", "city" : "SAINT REMY DE PROVENCE", "tel" : "04 90 92 15 33" },
{ "name" : "Le Clarence", "street" : "31 Avenue Franklin Delano Roosevelt", "zipcode" : "75008", "city" : "Paris 08", "tel" : "01 82 82 10 10" },
{ "name" : "Le Saint-Estève", "street" : "2250 route cézanne D17", "zipcode" : "13100", "city" : "Le Tholonet", "tel" : "04 42 27 10 14" },
{ "name" : "Fanny Rey & Jonathan Wahid", "street" : "12, boulevard Mirabeau", "zipcode" : "13210", "city" : "SAINT REMY DE PROVENCE", "tel" : "04 90 92 15 33" },
{ "name" : "Le 39V", "street" : "39 Avenue George V", "zipcode" : "75008", "city" : "Paris 08", "tel" : "01 56 62 39 05" },
{ "name" : "Les Pêcheurs", "street" : "10 boulevard du Maréchal-Juin", "zipcode" : "06600", "city" : "Antibes", "tel" : "04 92 93 13 30" },
{ "name" : "Les Pêcheurs", "street" : "10 boulevard du Maréchal-Juin", "zipcode" : "06600", "city" : "Antibes", "tel" : "04 92 93 13 30" },
{ "name" : "L'Orangerie du Château", "street" : "1 Avenue du Docteur Jean Laigret", "zipcode" : "41000", "city" : "Blois", "tel" : "02 54 78 05 36" },
{ "name" : "Les Pêcheurs", "street" : "10 boulevard du Maréchal-Juin", "zipcode" : "06600", "city" : "Antibes", "tel" : "04 92 93 13 30" },
{ "name" : "Les Pêcheurs", "street" : "10 boulevard du Maréchal-Juin", "zipcode" : "06600", "city" : "Antibes", "tel" : "04 92 93 13 30" },
{ "name" : "Aigue Marine", "street" : "5 r. M. -Berthelot", "zipcode" : "22220", "city" : "Tréguier", "tel" : "02 96 92 97 00" },
{ "name" : "Le Pré Catelan", "street" : "Route de Suresnes", "zipcode" : "75016", "city" : "Paris", "tel" : "01 44 14 41 14" },
{ "name" : "Le Clarence", "street" : "31 Avenue Franklin Delano Roosevelt", "zipcode" : "75008", "city" : "Paris 08", "tel" : "01 82 82 10 10" },
{ "name" : "Le Saint-Estève", "street" : "2250 route cézanne D17", "zipcode" : "13100", "city" : "Le Tholonet", "tel" : "04 42 27 10 14" },
{ "name" : "Paul Bocuse", "street" : "40 Quai de la Plage", "zipcode" : "69660", "city" : "Collonges-au-Mont-d'Or", "tel" : "04 72 42 90 90" },
{ "name" : "JY'S", "street" : "17 r. de la Poissonnerie", "zipcode" : "68000", "city" : "Colmar", "tel" : "03 89 21 53 60" },
{ "name" : "Aigue Marine", "street" : "5 r. M. -Berthelot", "zipcode" : "22220", "city" : "Tréguier", "tel" : "02 96 92 97 00" },
{ "name" : "Le Clarence", "street" : "31 Avenue Franklin Delano Roosevelt", "zipcode" : "75008", "city" : "Paris 08", "tel" : "01 82 82 10 10" },
{ "name" : "Le Restaurant", "street" : "13 rue des Beaux-Arts", "zipcode" : "75006", "city" : "Paris 06", "tel" : "01 44 41 99 01" },
{ "name" : "Le Jardin des Remparts", "street" : "10 rue Hôtel-Dieu", "zipcode" : "21200", "city" : "Beaune", "tel" : "03 80 24 79 41" },
{ "name" : "Paul Bocuse", "street" : "40 Quai de la Plage", "zipcode" : "69660", "city" : "Collonges-au-Mont-d'Or", "tel" : "04 72 42 90 90" },
{ "name" : "JY'S", "street" : "17 r. de la Poissonnerie", "zipcode" : "68000", "city" : "Colmar", "tel" : "03 89 21 53 60" },
{ "name" : "Les Pêcheurs", "street" : "10 boulevard du Maréchal-Juin", "zipcode" : "06600", "city" : "Antibes", "tel" : "04 92 93 13 30" },
{ "name" : "Les Pêcheurs", "street" : "10 boulevard du Maréchal-Juin", "zipcode" : "06600", "city" : "Antibes", "tel" : "04 92 93 13 30" },
{ "name" : "JY'S", "street" : "17 r. de la Poissonnerie", "zipcode" : "68000", "city" : "Colmar", "tel" : "03 89 21 53 60" },
{ "name" : "Le Clarence", "street" : "31 Avenue Franklin Delano Roosevelt", "zipcode" : "75008", "city" : "Paris 08", "tel" : "01 82 82 10 10" },
{ "name" : "Restaurant du Palais Royal", "street" : "110 Galerie de Valois - Jardin du Palais Royal", "zipcode" : "75001", "city" : "Paris 01", "tel" : "01 40 20 00 27" },
{ "name" : "Paul Bocuse", "street" : "40 Quai de la Plage", "zipcode" : "69660", "city" : "Collonges-au-Mont-d'Or", "tel" : "04 72 42 90 90" },
{ "name" : "Le Saint-Estève", "street" : "2250 route cézanne D17", "zipcode" : "13100", "city" : "Le Tholonet", "tel" : "04 42 27 10 14" },
{ "name" : "Le Jardin des Remparts", "street" : "10 rue Hôtel-Dieu", "zipcode" : "21200", "city" : "Beaune", "tel" : "03 80 24 79 41" },
{ "name" : "Le Jardin des Remparts", "street" : "10 rue Hôtel-Dieu", "zipcode" : "21200", "city" : "Beaune", "tel" : "03 80 24 79 41" },
{ "name" : "Aigue Marine", "street" : "5 r. M. -Berthelot", "zipcode" : "22220", "city" : "Tréguier", "tel" : "02 96 92 97 00" },
{ "name" : "Le 39V", "street" : "39 Avenue George V", "zipcode" : "75008", "city" : "Paris 08", "tel" : "01 56 62 39 05" },
{ "name" : "Christophe Bacquié", "street" : "Hotel du Castellet Route des Hauts du Camp", "zipcode" : "83330", "city" : "Le Castellet", "tel" : "04 94 98 29 69" },
{ "name" : "La Table de Franck Putelat", "street" : "80 chemin des Anglais", "zipcode" : "11000", "city" : "Carcassonne", "tel" : "04 68 71 80 80" },
{ "name" : "Le Jardin des Remparts", "street" : "10 rue Hôtel-Dieu", "zipcode" : "21200", "city" : "Beaune", "tel" : "03 80 24 79 41" },
{ "name" : "Christophe Bacquié", "street" : "Hotel du Castellet Route des Hauts du Camp", "zipcode" : "83330", "city" : "Le Castellet", "tel" : "04 94 98 29 69" },
{ "name" : "Auberge de l'Île Barbe", "street" : "1 Place Notre-Dame", "zipcode" : "69009", "city" : "Lyon 09", "tel" : "04 78 83 99 49" },
{ "name" : "Auberge de l'Île Barbe", "street" : "1 Place Notre-Dame", "zipcode" : "69009", "city" : "Lyon 09", "tel" : "04 78 83 99 49" },
{ "name" : "JY'S", "street" : "17 r. de la Poissonnerie", "zipcode" : "68000", "city" : "Colmar", "tel" : "03 89 21 53 60" },
{ "name" : "Le Restaurant", "street" : "13 rue des Beaux-Arts", "zipcode" : "75006", "city" : "Paris 06", "tel" : "01 44 41 99 01" },
{ "name" : "Le Clarence", "street" : "31 Avenue Franklin Delano Roosevelt", "zipcode" : "75008", "city" : "Paris 08", "tel" : "01 82 82 10 10" },
{ "name" : "Paul Bocuse", "street" : "40 Quai de la Plage", "zipcode" : "69660", "city" : "Collonges-au-Mont-d'Or", "tel" : "04 72 42 90 90" },
{ "name" : "Aigue Marine", "street" : "5 r. M. -Berthelot", "zipcode" : "22220", "city" : "Tréguier", "tel" : "02 96 92 97 00" },
{ "name" : "Fanny Rey & Jonathan Wahid", "street" : "12, boulevard Mirabeau", "zipcode" : "13210", "city" : "SAINT REMY DE PROVENCE", "tel" : "04 90 92 15 33" },
{ "name" : "Frédéric Doucet", "street" : "2 avenue de la Libération", "zipcode" : "71120", "city" : "Charolles", "tel" : "03 85 24 11 32" },
{ "name" : "JY'S", "street" : "17 r. de la Poissonnerie", "zipcode" : "68000", "city" : "Colmar", "tel" : "03 89 21 53 60" },
{ "name" : "Fanny Rey & Jonathan Wahid", "street" : "12, boulevard Mirabeau", "zipcode" : "13210", "city" : "SAINT REMY DE PROVENCE", "tel" : "04 90 92 15 33" },
{ "name" : "Frédéric Doucet", "street" : "2 avenue de la Libération", "zipcode" : "71120", "city" : "Charolles", "tel" : "03 85 24 11 32" },
{ "name" : "JY'S", "street" : "17 r. de la Poissonnerie", "zipcode" : "68000", "city" : "Colmar", "tel" : "03 89 21 53 60" },
{ "name" : "Christophe Bacquié", "street" : "Hotel du Castellet Route des Hauts du Camp", "zipcode" : "83330", "city" : "Le Castellet", "tel" : "04 94 98 29 69" },
{ "name" : "Fanny Rey & Jonathan Wahid", "street" : "12, boulevard Mirabeau", "zipcode" : "13210", "city" : "SAINT REMY DE PROVENCE", "tel" : "04 90 92 15 33" },
{ "name" : "Christophe Bacquié", "street" : "Hotel du Castellet Route des Hauts du Camp", "zipcode" : "83330", "city" : "Le Castellet", "tel" : "04 94 98 29 69" },
{ "name" : "Les Pêcheurs", "street" : "10 boulevard du Maréchal-Juin", "zipcode" : "06600", "city" : "Antibes", "tel" : "04 92 93 13 30" },
{ "name" : "La Table de Franck Putelat", "street" : "80 chemin des Anglais", "zipcode" : "11000", "city" : "Carcassonne", "tel" : "04 68 71 80 80" },
{ "name" : "Restaurant du Palais Royal", "street" : "110 Galerie de Valois - Jardin du Palais Royal", "zipcode" : "75001", "city" : "Paris 01", "tel" : "01 40 20 00 27" },
{ "name" : "Auberge de l'Île Barbe", "street" : "1 Place Notre-Dame", "zipcode" : "69009", "city" : "Lyon 09", "tel" : "04 78 83 99 49" },
{ "name" : "Les Pêcheurs", "street" : "10 boulevard du Maréchal-Juin", "zipcode" : "06600", "city" : "Antibes", "tel" : "04 92 93 13 30" },
{ "name" : "Le Jardin des Remparts", "street" : "10 rue Hôtel-Dieu", "zipcode" : "21200", "city" : "Beaune", "tel" : "03 80 24 79 41" },
{ "name" : "Le 39V", "street" : "39 Avenue George V", "zipcode" : "75008", "city" : "Paris 08", "tel" : "01 56 62 39 05" },
{ "name" : "Agapé", "street" : "51 Rue Jouffroy-d'Abbans", "zipcode" : "75017", "city" : "Paris 17", "tel" : "01 42 27 20 18" },
{ "name" : "Paul Bocuse", "street" : "40 Quai de la Plage", "zipcode" : "69660", "city" : "Collonges-au-Mont-d'Or", "tel" : "04 72 42 90 90" },
{ "name" : "Le Clarence", "street" : "31 Avenue Franklin Delano Roosevelt", "zipcode" : "75008", "city" : "Paris 08", "tel" : "01 82 82 10 10" },
{ "name" : "La Table de Franck Putelat", "street" : "80 chemin des Anglais", "zipcode" : "11000", "city" : "Carcassonne", "tel" : "04 68 71 80 80" },
{ "name" : "L'Orangerie du Château", "street" : "1 Avenue du Docteur Jean Laigret", "zipcode" : "41000", "city" : "Blois", "tel" : "02 54 78 05 36" },
{ "name" : "Le Clarence", "street" : "31 Avenue Franklin Delano Roosevelt", "zipcode" : "75008", "city" : "Paris 08", "tel" : "01 82 82 10 10" },
{ "name" : "Le Restaurant", "street" : "13 rue des Beaux-Arts", "zipcode" : "75006", "city" : "Paris 06", "tel" : "01 44 41 99 01" },
{ "name" : "Paul Bocuse", "street" : "40 Quai de la Plage", "zipcode" : "69660", "city" : "Collonges-au-Mont-d'Or", "tel" : "04 72 42 90 90" },
{ "name" : "Frédéric Doucet", "street" : "2 avenue de la Libération", "zipcode" : "71120", "city" : "Charolles", "tel" : "03 85 24 11 32" },
{ "name" : "JY'S", "street" : "17 r. de la Poissonnerie", "zipcode" : "68000", "city" : "Colmar", "tel" : "03 89 21 53 60" },
{ "name" : "La Table de Franck Putelat", "street" : "80 chemin des Anglais", "zipcode" : "11000", "city" : "Carcassonne", "tel" : "04 68 71 80 80" },
{ "name" : "Christophe Bacquié", "street" : "Hotel du Castellet Route des Hauts du Camp", "zipcode" : "83330", "city" : "Le Castellet", "tel" : "04 94 98 29 69" },
{ "name" : "Le Restaurant", "street" : "13 rue des Beaux-Arts", "zipcode" : "75006", "city" : "Paris 06", "tel" : "01 44 41 99 01" },
{ "name" : "Le Saint-Estève", "street" : "2250 route cézanne D17", "zipcode" : "13100", "city" : "Le Tholonet", "tel" : "04 42 27 10 14" },
{ "name" : "Aigue Marine", "street" : "5 r. M. -Berthelot", "zipcode" : "22220", "city" : "Tréguier", "tel" : "02 96 92 97 00" },
{ "name" : "Le Jardin des Remparts", "street" : "10 rue Hôtel-Dieu", "zipcode" : "21200", "city" : "Beaune", "tel" : "03 80 24 79 41" },
{ "name" : "Paul Bocuse", "street" : "40 Quai de la Plage", "zipcode" : "69660", "city" : "Collonges-au-Mont-d'Or", "tel" : "04 72 42 90 90" },
{ "name" : "Aigue Marine", "street" : "5 r. M. -Berthelot", "zipcode" : "22220", "city" : "Tréguier", "tel" : "02 96 92 97 00" },
{ "name" : "L'Orangerie du Château", "street" : "1 Avenue du Docteur Jean Laigret", "zipcode" : "41000", "city" : "Blois", "tel" : "02 54 78 05 36" },
{ "name" : "Frédéric Doucet", "street" : "2 avenue de la Libération", "zipcode" : "71120", "city" : "Charolles", "tel" : "03 85 24 11 32" },
{ "name" : "Agapé", "street" : "51 Rue Jouffroy-d'Abbans", "zipcode" : "75017", "city" : "Paris 17", "tel" : "01 42 27 20 18" },
{ "name" : "Le Pré Catelan", "street" : "Route de Suresnes", "zipcode" : "75016", "city" : "Paris", "tel" : "01 44 14 41 14" },
{ "name" : "Christophe Bacquié", "street" : "Hotel du Castellet Route des Hauts du Camp", "zipcode" : "83330", "city" : "Le Castellet", "tel" : "04 94 98 29 69" },
{ "name" : "Restaurant du Palais Royal", "street" : "110 Galerie de Valois - Jardin du Palais Royal", "zipcode" : "75001", "city" : "Paris 01", "tel" : "01 40 20 00 27" },
{ "name" : "Auberge de l'Île Barbe", "street" : "1 Place Notre-Dame", "zipcode" : "69009", "city" : "Lyon 09", "tel" : "04 78 83 99 49" },
{ "name" : "Le Pré Catelan", "street" : "Route de Suresnes", "zipcode" : "75016", "city" : "Paris", "tel" : "01 44 14 41 14" },
{ "name" : "Le Restaurant", "street" : "13 rue des Beaux-Arts", "zipcode" : "75006", "city" : "Paris 06", "tel" : "01 44 41 99 01" },
{ "name" : "Aigue Marine", "street" : "5 r. M. -Berthelot", "zipcode" : "22220", "city" : "Tréguier", "tel" : "02 96 92 97 00" },
{ "name" : "Auberge de l'Île Barbe", "street" : "1 Place Notre-Dame", "zipcode" : "69009", "city" : "Lyon 09", "tel" : "04 78 83 99 49" },
{ "name" : "Le Pré Catelan", "street" : "Route de Suresnes", "zipcode" : "75016", "city" : "Paris", "tel" : "01 44 14 41 14" },
{ "name" : "JY'S", "street" : "17 r. de la Poissonnerie", "zipcode" : "68000", "city" : "Colmar", "tel" : "03 89 21 53 60" },
{ "name" : "Le Pré Catelan", "street" : "Route de Suresnes", "zipcode" : "75016", "city" : "Paris", "tel" : "01 44 14 41 14" },
{ "name" : "Agapé", "street" : "51 Rue Jouffroy-d'Abbans", "zipcode" : "75017", "city" : "Paris 17", "tel" : "01 42 27 20 18" },
{ "name" : "JY'S", "street" : "17 r. de la Poissonnerie", "zipcode" : "68000", "city" : "Colmar", "tel" : "03 89 21 53 60" },
{ "name" : "L'Orangerie du Château", "street" : "1 Avenue du Docteur Jean Laigret", "zipcode" : "41000", "city" : "Blois", "tel" : "02 54 78 05 36" },
{ "name" : "Le Clarence", "street" : "31 Avenue Franklin Delano Roosevelt", "zipcode" : "75008", "city" : "Paris 08", "tel" : "01 82 82 10 10" },
{ "name" : "Le 39V", "street" : "39 Avenue George V", "zipcode" : "75008", "city" : "Paris 08", "tel" : "01 56 62 39 05" },
{ "name" : "Fanny Rey & Jonathan Wahid", "street" : "12, boulevard Mirabeau", "zipcode" : "13210", "city" : "SAINT REMY DE PROVENCE", "tel" : "04 90 92 15 33" },
{ "name" : "L'Orangerie du Château", "street" : "1 Avenue du Docteur Jean Laigret", "zipcode" : "41000", "city" : "Blois", "tel" : "02 54 78 05 36" },
{ "name" : "Restaurant du Palais Royal", "street" : "110 Galerie de Valois - Jardin du Palais Royal", "zipcode" : "75001", "city" : "Paris 01", "tel" : "01 40 20 00 27" },
{ "name" : "Le Jardin des Remparts", "street" : "10 rue Hôtel-Dieu", "zipcode" : "21200", "city" : "Beaune", "tel" : "03 80 24 79 41" },
{ "name" : "La Table de Franck Putelat", "street" : "80 chemin des Anglais", "zipcode" : "11000", "city" : "Carcassonne", "tel" : "04 68 71 80 80" },
{ "name" : "Le 39V", "street" : "39 Avenue George V", "zipcode" : "75008", "city" : "Paris 08", "tel" : "01 56 62 39 05" },
{ "name" : "Le 39V", "street" : "39 Avenue George V", "zipcode" : "75008", "city" : "Paris 08", "tel" : "01 56 62 39 05" },
{ "name" : "Le 39V", "street" : "39 Avenue George V", "zipcode" : "75008", "city" : "Paris 08", "tel" : "01 56 62 39 05" },
{ "name" : "Le Clarence", "street" : "31 Avenue Franklin Delano Roosevelt", "zipcode" : "75008", "city" : "Paris 08", "tel" : "01 82 82 10 10" },
{ "name" : "Christophe Bacquié", "street" : "Hotel du Castellet Route des Hauts du Camp", "zipcode" : "83330", "city" : "Le Castellet", "tel" : "04 94 98 29 69" },
{ "name" : "Fanny Rey & Jonathan Wahid", "street" : "12, boulevard Mirabeau", "zipcode" : "13210", "city" : "SAINT REMY DE PROVENCE", "tel" : "04 90 92 15 33" },
{ "name" : "Frédéric Doucet", "street" : "2 avenue de la Libération", "zipcode" : "71120", "city" : "Charolles", "tel" : "03 85 24 11 32" },
{ "name" : "L'Orangerie du Château", "street" : "1 Avenue du Docteur Jean Laigret", "zipcode" : "41000", "city" : "Blois", "tel" : "02 54 78 05 36" },
{ "name" : "Auberge de l'Île Barbe", "street" : "1 Place Notre-Dame", "zipcode" : "69009", "city" : "Lyon 09", "tel" : "04 78 83 99 49" },
{ "name" : "Restaurant du Palais Royal", "street" : "110 Galerie de Valois - Jardin du Palais Royal", "zipcode" : "75001", "city" : "Paris 01", "tel" : "01 40 20 00 27" },
{ "name" : "Les Pêcheurs", "street" : "10 boulevard du Maréchal-Juin", "zipcode" : "06600", "city" : "Antibes", "tel" : "04 92 93 13 30" },
{ "name" : "Auberge de l'Île Barbe", "street" : "1 Place Notre-Dame", "zipcode" : "69009", "city" : "Lyon 09", "tel" : "04 78 83 99 49" },
{ "name" : "Le Pré Catelan", "street" : "Route de Suresnes", "zipcode" : "75016", "city" : "Paris", "tel" : "01 44 14 41 14" },
{ "name" : "Le 39V", "street" : "39 Avenue George V", "zipcode" : "75008", "city" : "Paris 08", "tel" : "01 56 62 39 05" },
{ "name" : "Le Pré Catelan", "street" : "Route de Suresnes", "zipcode" : "75016", "city" : "Paris", "tel" : "01 44 14 41 14" },
{ "name" : "Le 39V", "street" : "39 Avenue George V", "zipcode" : "75008", "city" : "Paris 08", "tel" : "01 56 62 39 05" },
{ "name" : "JY'S", "street" : "17 r. de la Poissonnerie", "zipcode" : "68000", "city" : "Colmar", "tel" : "03 89 21 53 60" },
{ "name" : "Le Restaurant", "street" : "13 rue des Beaux-Arts", "zipcode" : "75006", "city" : "Paris 06", "tel" : "01 44 41 99 01" },
{ "name" : "Agapé", "street" : "51 Rue Jouffroy-d'Abbans", "zipcode" : "75017", "city" : "Paris 17", "tel" : "01 42 27 20 18" },
{ "name" : "Le Restaurant", "street" : "13 rue des Beaux-Arts", "zipcode" : "75006", "city" : "Paris 06", "tel" : "01 44 41 99 01" },
{ "name" : "Le 39V", "street" : "39 Avenue George V", "zipcode" : "75008", "city" : "Paris 08", "tel" : "01 56 62 39 05" },
{ "name" : "Frédéric Doucet", "street" : "2 avenue de la Libération", "zipcode" : "71120", "city" : "Charolles", "tel" : "03 85 24 11 32" },
{ "name" : "Christophe Bacquié", "street" : "Hotel du Castellet Route des Hauts du Camp", "zipcode" : "83330", "city" : "Le Castellet", "tel" : "04 94 98 29 69" },
{ "name" : "Le Pré Catelan", "street" : "Route de Suresnes", "zipcode" : "75016", "city" : "Paris", "tel" : "01 44 14 41 14" },
{ "name" : "Frédéric Doucet", "street" : "2 avenue de la Libération", "zipcode" : "71120", "city" : "Charolles", "tel" : "03 85 24 11 32" },
{ "name" : "JY'S", "street" : "17 r. de la Poissonnerie", "zipcode" : "68000", "city" : "Colmar", "tel" : "03 89 21 53 60" },
{ "name" : "L'Orangerie du Château", "street" : "1 Avenue du Docteur Jean Laigret", "zipcode" : "41000", "city" : "Blois", "tel" : "02 54 78 05 36" },
{ "name" : "L'Orangerie du Château", "street" : "1 Avenue du Docteur Jean Laigret", "zipcode" : "41000", "city" : "Blois", "tel" : "02 54 78 05 36" },
{ "name" : "Aigue Marine", "street" : "5 r. M. -Berthelot", "zipcode" : "22220", "city" : "Tréguier", "tel" : "02 96 92 97 00" },
{ "name" : "Le Saint-Estève", "street" : "2250 route cézanne D17", "zipcode" : "13100", "city" : "Le Tholonet", "tel" : "04 42 27 10 14" },
{ "name" : "Le Clarence", "street" : "31 Avenue Franklin Delano Roosevelt", "zipcode" : "75008", "city" : "Paris 08", "tel" : "01 82 82 10 10" },
{ "name" : "Fanny Rey & Jonathan Wahid", "street" : "12, boulevard Mirabeau", "zipcode" : "13210", "city" : "SAINT REMY DE PROVENCE", "tel" : "04 90 92 15 33" },
{ "name" : "Le Clarence", "street" : "31 Avenue Franklin Delano Roosevelt", "zipcode" : "75008", "city" : "Paris 08", "tel" : "01 82 82 10 10" },
{ "name" : "Le Saint-Estève", "street" : "2250 route cézanne D17", "zipcode" : "13100", "city" : "Le Tholonet", "tel" : "04 42 27 10 14" },
{ "name" : "Auberge de l'Île Barbe", "street" : "1 Place Notre-Dame", "zipcode" : "69009", "city" : "Lyon 09", "tel" : "04 78 83 99 49" },
{ "name" : "Le Restaurant", "street" : "13 rue des Beaux-Arts", "zipcode" : "75006", "city" : "Paris 06", "tel" : "01 44 41 99 01" },
{ "name" : "JY'S", "street" : "17 r. de la Poissonnerie", "zipcode" : "68000", "city" : "Colmar", "tel" : "03 89 21 53 60" },
{ "name" : "JY'S", "street" : "17 r. de la Poissonnerie", "zipcode" : "68000", "city" : "Colmar", "tel" : "03 89 21 53 60" },
{ "name" : "L'Orangerie du Château", "street" : "1 Avenue du Docteur Jean Laigret", "zipcode" : "41000", "city" : "Blois", "tel" : "02 54 78 05 36" },
{ "name" : "Auberge de l'Île Barbe", "street" : "1 Place Notre-Dame", "zipcode" : "69009", "city" : "Lyon 09", "tel" : "04 78 83 99 49" },
{ "name" : "L'Orangerie du Château", "street" : "1 Avenue du Docteur Jean Laigret", "zipcode" : "41000", "city" : "Blois", "tel" : "02 54 78 05 36" },
{ "name" : "La Table de Franck Putelat", "street" : "80 chemin des Anglais", "zipcode" : "11000", "city" : "Carcassonne", "tel" : "04 68 71 80 80" },
{ "name" : "Le Jardin des Remparts", "street" : "10 rue Hôtel-Dieu", "zipcode" : "21200", "city" : "Beaune", "tel" : "03 80 24 79 41" },
{ "name" : "Paul Bocuse", "street" : "40 Quai de la Plage", "zipcode" : "69660", "city" : "Collonges-au-Mont-d'Or", "tel" : "04 72 42 90 90" },
{ "name" : "Le Jardin des Remparts", "street" : "10 rue Hôtel-Dieu", "zipcode" : "21200", "city" : "Beaune", "tel" : "03 80 24 79 41" },
{ "name" : "Paul Bocuse", "street" : "40 Quai de la Plage", "zipcode" : "69660", "city" : "Collonges-au-Mont-d'Or", "tel" : "04 72 42 90 90" },
{ "name" : "Le Pré Catelan", "street" : "Route de Suresnes", "zipcode" : "75016", "city" : "Paris", "tel" : "01 44 14 41 14" },
{ "name" : "Auberge de l'Île Barbe", "street" : "1 Place Notre-Dame", "zipcode" : "69009", "city" : "Lyon 09", "tel" : "04 78 83 99 49" },
{ "name" : "Le Clarence", "street" : "31 Avenue Franklin Delano Roosevelt", "zipcode" : "75008", "city" : "Paris 08", "tel" : "01 82 82 10 10" },
{ "name" : "Fanny Rey & Jonathan Wahid", "street" : "12, boulevard Mirabeau", "zipcode" : "13210", "city" : "SAINT REMY DE PROVENCE", "tel" : "04 90 92 15 33" },
{ "name" : "Frédéric Doucet", "street" : "2 avenue de la Libération", "zipcode" : "71120", "city" : "Charolles", "tel" : "03 85 24 11 32" },
{ "name" : "La Table de Franck Putelat", "street" : "80 chemin des Anglais", "zipcode" : "11000", "city" : "Carcassonne", "tel" : "04 68 71 80 80" },
{ "name" : "Frédéric Doucet", "street" : "2 avenue de la Libération", "zipcode" : "71120", "city" : "Charolles", "tel" : "03 85 24 11 32" },
{ "name" : "Le Jardin des Remparts", "street" : "10 rue Hôtel-Dieu", "zipcode" : "21200", "city" : "Beaune", "tel" : "03 80 24 79 41" },
{ "name" : "Fanny Rey & Jonathan Wahid", "street" : "12, boulevard Mirabeau", "zipcode" : "13210", "city" : "SAINT REMY DE PROVENCE", "tel" : "04 90 92 15 33" },
{ "name" : "L'Orangerie du Château", "street" : "1 Avenue du Docteur Jean Laigret", "zipcode" : "41000", "city" : "Blois", "tel" : "02 54 78 05 36" },
{ "name" : "Fanny Rey & Jonathan Wahid", "street" : "12, boulevard Mirabeau", "zipcode" : "13210", "city" : "SAINT REMY DE PROVENCE", "tel" : "04 90 92 15 33" },
{ "name" : "Auberge de l'Île Barbe", "street" : "1 Place Notre-Dame", "zipcode" : "69009", "city" : "Lyon 09", "tel" : "04 78 83 99 49" },
{ "name" : "Agapé", "street" : "51 Rue Jouffroy-d'Abbans", "zipcode" : "75017", "city" : "Paris 17", "tel" : "01 42 27 20 18" },
{ "name" : "Les Pêcheurs", "street" : "10 boulevard du Maréchal-Juin", "zipcode" : "06600", "city" : "Antibes", "tel" : "04 92 93 13 30" },
{ "name" : "Restaurant du Palais Royal", "street" : "110 Galerie de Valois - Jardin du Palais Royal", "zipcode" : "75001", "city" : "Paris 01", "tel" : "01 40 20 00 27" },
{ "name" : "Le Saint-Estève", "street" : "2250 route cézanne D17", "zipcode" : "13100", "city" : "Le Tholonet", "tel" : "04 42 27 10 14" },
{ "name" : "Agapé", "street" : "51 Rue Jouffroy-d'Abbans", "zipcode" : "75017", "city" : "Paris 17", "tel" : "01 42 27 20 18" },
{ "name" : "Fanny Rey & Jonathan Wahid", "street" : "12, boulevard Mirabeau", "zipcode" : "13210", "city" : "SAINT REMY DE PROVENCE", "tel" : "04 90 92 15 33" },
{ "name" : "Restaurant du Palais Royal", "street" : "110 Galerie de Valois - Jardin du Palais Royal", "zipcode" : "75001", "city" : "Paris 01", "tel" : "01 40 20 00 27" },
{ "name" : "Le Saint-Estève", "street" : "2250 route cézanne D17", "zipcode" : "13100", "city" : "Le Tholonet", "tel" : "04 42 27 10 14" },
{ "name" : "Le Restaurant", "street" : "13 rue des Beaux-Arts", "zipcode" : "75006", "city" : "Paris 06", "tel" : "01 44 41 99 01" },
{ "name" : "L'Orangerie du Château", "street" : "1 Avenue du Docteur Jean Laigret", "zipcode" : "41000", "city" : "Blois", "tel" : "02 54 78 05 36" },
{ "name" : "Agapé", "street" : "51 Rue Jouffroy-d'Abbans", "zipcode" : "75017", "city" : "Paris 17", "tel" : "01 42 27 20 18" },
{ "name" : "La Table de Franck Putelat", "street" : "80 chemin des Anglais", "zipcode" : "11000", "city" : "Carcassonne", "tel" : "04 68 71 80 80" },
{ "name" : "La Table de Franck Putelat", "street" : "80 chemin des Anglais", "zipcode" : "11000", "city" : "Carcassonne", "tel" : "04 68 71 80 80" },
{ "name" : "Restaurant du Palais Royal", "street" : "110 Galerie de Valois - Jardin du Palais Royal", "zipcode" : "75001", "city" : "Paris 01", "tel" : "01 40 20 00 27" },
{ "name" : "Frédéric Doucet", "street" : "2 avenue de la Libération", "zipcode" : "71120", "city" : "Charolles", "tel" : "03 85 24 11 32" },
{ "name" : "Christophe Bacquié", "street" : "Hotel du Castellet Route des Hauts du Camp", "zipcode" : "83330", "city" : "Le Castellet", "tel" : "04 94 98 29 69" },
{ "name" : "Le 39V", "street" : "39 Avenue George V", "zipcode" : "75008", "city" : "Paris 08", "tel" : "01 56 62 39 05" },
{ "name" : "Aigue Marine", "street" : "5 r. M. -Berthelot", "zipcode" : "22220", "city" : "Tréguier", "tel" : "02 96 92 97 00" },
{ "name" : "Aigue Marine", "street" : "5 r. M. -Berthelot", "zipcode" : "22220", "city" : "Tréguier", "tel" : "02 96 92 97 00" },
{ "name" : "Les Pêcheurs", "street" : "10 boulevard du Maréchal-Juin", "zipcode" : "06600", "city" : "Antibes", "tel" : "04 92 93 13 30" },
{ "name" : "La Table de Franck Putelat", "street" : "80 chemin des Anglais", "zipcode" : "11000", "city" : "Carcassonne", "tel" : "04 68 71 80 80" },
{ "name" : "Frédéric Doucet", "street" : "2 avenue de la Libération", "zipcode" : "71120", "city" : "Charolles", "tel" : "03 85 24 11 32" },
{ "name" : "Agapé", "street" : "51 Rue Jouffroy-d'Abbans", "zipcode" : "75017", "city" : "Paris 17", "tel" : "01 42 27 20 18" },
{ "name" : "Le 39V", "street" : "39 Avenue George V", "zipcode" : "75008", "city" : "Paris 08", "tel" : "01 56 62 39 05" },
{ "name" : "Restaurant du Palais Royal", "street" : "110 Galerie de Valois - Jardin du Palais Royal", "zipcode" : "75001", "city" : "Paris 01", "tel" : "01 40 20 00 27" },
{ "name" : "Aigue Marine", "street" : "5 r. M. -Berthelot", "zipcode" : "22220", "city" : "Tréguier", "tel" : "02 96 92 97 00" },
{ "name" : "Le 39V", "street" : "39 Avenue George V", "zipcode" : "75008", "city" : "Paris 08", "tel" : "01 56 62 39 05" },
{ "name" : "L'Orangerie du Château", "street" : "1 Avenue du Docteur Jean Laigret", "zipcode" : "41000", "city" : "Blois", "tel" : "02 54 78 05 36" },
{ "name" : "Le Saint-Estève", "street" : "2250 route cézanne D17", "zipcode" : "13100", "city" : "Le Tholonet", "tel" : "04 42 27 10 14" },
{ "name" : "Le Pré Catelan", "street" : "Route de Suresnes", "zipcode" : "75016", "city" : "Paris", "tel" : "01 44 14 41 14" },
{ "name" : "Les Pêcheurs", "street" : "10 boulevard du Maréchal-Juin", "zipcode" : "06600", "city" : "Antibes", "tel" : "04 92 93 13 30" },
{ "name" : "Les Pêcheurs", "street" : "10 boulevard du Maréchal-Juin", "zipcode" : "06600", "city" : "Antibes", "tel" : "04 92 93 13 30" },
{ "name" : "Paul Bocuse", "street" : "40 Quai de la Plage", "zipcode" : "69660", "city" : "Collonges-au-Mont-d'Or", "tel" : "04 72 42 90 90" },
{ "name" : "Le Jardin des Remparts", "street" : "10 rue Hôtel-Dieu", "zipcode" : "21200", "city" : "Beaune", "tel" : "03 80 24 79 41" },
{ "name" : "La Table de Franck Putelat", "street" : "80 chemin des Anglais", "zipcode" : "11000", "city" : "Carcassonne", "tel" : "04 68 71 80 80" },
{ "name" : "Agapé", "street" : "51 Rue Jouffroy-d'Abbans", "zipcode" : "75017", "city" : "Paris 17", "tel" : "01 42 27 20 18" },
{ "name" : "Agapé", "street" : "51 Rue Jouffroy-d'Abbans", "zipcode" : "75017", "city" : "Paris 17", "tel" : "01 42 27 20 18" },
{ "name" : "L'Orangerie du Château", "street" : "1 Avenue du Docteur Jean Laigret", "zipcode" : "41000", "city" : "Blois", "tel" : "02 54 78 05 36" },
{ "name" : "Auberge de l'Île Barbe", "street" : "1 Place Notre-Dame", "zipcode" : "69009", "city" : "Lyon 09", "tel" : "04 78 83 99 49" },
{ "name" : "Aigue Marine", "street" : "5 r. M. -Berthelot", "zipcode" : "22220", "city" : "Tréguier", "tel" : "02 96 92 97 00" },
{ "name" : "Le Saint-Estève", "street" : "2250 route cézanne D17", "zipcode" : "13100", "city" : "Le Tholonet", "tel" : "04 42 27 10 14" },
{ "name" : "Christophe Bacquié", "street" : "Hotel du Castellet Route des Hauts du Camp", "zipcode" : "83330", "city" : "Le Castellet", "tel" : "04 94 98 29 69" },
{ "name" : "La Table de Franck Putelat", "street" : "80 chemin des Anglais", "zipcode" : "11000", "city" : "Carcassonne", "tel" : "04 68 71 80 80" },
{ "name" : "Le Jardin des Remparts", "street" : "10 rue Hôtel-Dieu", "zipcode" : "21200", "city" : "Beaune", "tel" : "03 80 24 79 41" },
{ "name" : "Le 39V", "street" : "39 Avenue George V", "zipcode" : "75008", "city" : "Paris 08", "tel" : "01 56 62 39 05" },
{ "name" : "L'Orangerie du Château", "street" : "1 Avenue du Docteur Jean Laigret", "zipcode" : "41000", "city" : "Blois", "tel" : "02 54 78 05 36" },
{ "name" : "Paul Bocuse", "street" : "40 Quai de la Plage", "zipcode" : "69660", "city" : "Collonges-au-Mont-d'Or", "tel" : "04 72 42 90 90" },
{ "name" : "JY'S", "street" : "17 r. de la Poissonnerie", "zipcode" : "68000", "city" : "Colmar", "tel" : "03 89 21 53 60" },
{ "name" : "Le Restaurant", "street" : "13 rue des Beaux-Arts", "zipcode" : "75006", "city" : "Paris 06", "tel" : "01 44 41 99 01" },
{ "name" : "Fanny Rey & Jonathan Wahid", "street" : "12, boulevard Mirabeau", "zipcode" : "13210", "city" : "SAINT REMY DE PROVENCE", "tel" : "04 90 92 15 33" },
{ "name" : "Restaurant du Palais Royal", "street" : "110 Galerie de Valois - Jardin du Palais Royal", "zipcode" : "75001", "city" : "Paris 01", "tel" : "01 40 20 00 27" },
{ "name" : "La Table de Franck Putelat", "street" : "80 chemin des Anglais", "zipcode" : "11000", "city" : "Carcassonne", "tel" : "04 68 71 80 80" },
{ "name" : "Aigue Marine", "street" : "5 r. M. -Berthelot", "zipcode" : "22220", "city" : "Tréguier", "tel" : "02 96 92 97 00" },
{ "name" : "Aigue Marine", "street" : "5 r. M. -Berthelot", "zipcode" : "22220", "city" : "Tréguier", "tel" : "02 96 92 97 00" },
{ "name" : "Le Restaurant", "street" : "13 rue des Beaux-Arts", "zipcode" : "75006", "city" : "Paris 06", "tel" : "01 44 41 99 01" },
{ "name" : "Paul Bocuse", "street" : "40 Quai de la Plage", "zipcode" : "69660", "city" : "Collonges-au-Mont-d'Or", "tel" : "04 72 42 90 90" },
{ "name" : "Frédéric Doucet", "street" : "2 avenue de la Libération", "zipcode" : "71120", "city" : "Charolles", "tel" : "03 85 24 11 32" },
{ "name" : "Restaurant du Palais Royal", "street" : "110 Galerie de Valois - Jardin du Palais Royal", "zipcode" : "75001", "city" : "Paris 01", "tel" : "01 40 20 00 27" },
{ "name" : "Agapé", "street" : "51 Rue Jouffroy-d'Abbans", "zipcode" : "75017", "city" : "Paris 17", "tel" : "01 42 27 20 18" },
{ "name" : "JY'S", "street" : "17 r. de la Poissonnerie", "zipcode" : "68000", "city" : "Colmar", "tel" : "03 89 21 53 60" },
{ "name" : "Les Pêcheurs", "street" : "10 boulevard du Maréchal-Juin", "zipcode" : "06600", "city" : "Antibes", "tel" : "04 92 93 13 30" },
{ "name" : "Le Pré Catelan", "street" : "Route de Suresnes", "zipcode" : "75016", "city" : "Paris", "tel" : "01 44 14 41 14" },
{ "name" : "Frédéric Doucet", "street" : "2 avenue de la Libération", "zipcode" : "71120", "city" : "Charolles", "tel" : "03 85 24 11 32" },
{ "name" : "Christophe Bacquié", "street" : "Hotel du Castellet Route des Hauts du Camp", "zipcode" : "83330", "city" : "Le Castellet", "tel" : "04 94 98 29 69" },
{ "name" : "Le Saint-Estève", "street" : "2250 route cézanne D17", "zipcode" : "13100", "city" : "Le Tholonet", "tel" : "04 42 27 10 14" },
{ "name" : "Auberge de l'Île Barbe", "street" : "1 Place Notre-Dame", "zipcode" : "69009", "city" : "Lyon 09", "tel" : "04 78 83 99 49" },
{ "name" : "Le Jardin des Remparts", "street" : "10 rue Hôtel-Dieu", "zipcode" : "21200", "city" : "Beaune", "tel" : "03 80 24 79 41" },
{ "name" : "L'Orangerie du Château", "street" : "1 Avenue du Docteur Jean Laigret", "zipcode" : "41000", "city" : "Blois", "tel" : "02 54 78 05 36" },
{ "name" : "Auberge de l'Île Barbe", "street" : "1 Place Notre-Dame", "zipcode" : "69009", "city" : "Lyon 09", "tel" : "04 78 83 99 49" },
{ "name" : "La Table de Franck Putelat", "street" : "80 chemin des Anglais", "zipcode" : "11000", "city" : "Carcassonne", "tel" : "04 68 71 80 80" },
{ "name" : "Le Jardin des Remparts", "street" : "10 rue Hôtel-Dieu", "zipcode" : "21200", "city" : "Beaune", "tel" : "03 80 24 79 41" },
{ "name" : "JY'S", "street" : "17 r. de la Poissonnerie", "zipcode" : "68000", "city" : "Colmar", "tel" : "03 89 21 53 60" },
{ "name" : "Les Pêcheurs", "street" : "10 boulevard du Maréchal-Juin", "zipcode" : "06600", "city" : "Antibes", "tel" : "04 92 93 13 30" },
{ "name" : "Restaurant du Palais Royal", "street" : "110 Galerie de Valois - Jardin du Palais Royal", "zipcode" : "75001", "city" : "Paris 01", "tel" : "01 40 20 00 27" },
{ "name" : "Le Pré Catelan", "street" : "Route de Suresnes", "zipcode" : "75016", "city" : "Paris", "tel" : "01 44 14 41 14" },
{ "name" : "Christophe Bacquié", "street" : "Hotel du Castellet Route des Hauts du Camp", "zipcode" : "83330", "city" : "Le Castellet", "tel" : "04 94 98 29 69" },
{ "name" : "La Table de Franck Putelat", "street" : "80 chemin des Anglais", "zipcode" : "11000", "city" : "Carcassonne", "tel" : "04 68 71 80 80" },
{ "name" : "Le Restaurant", "street" : "13 rue des Beaux-Arts", "zipcode" : "75006", "city" : "Paris 06", "tel" : "01 44 41 99 01" },
{ "name" : "Auberge de l'Île Barbe", "street" : "1 Place Notre-Dame", "zipcode" : "69009", "city" : "Lyon 09", "tel" : "04 78 83 99 49" },
{ "name" : "Le 39V", "street" : "39 Avenue George V", "zipcode" : "75008", "city" : "Paris 08", "tel" : "01 56 62 39 05" },
{ "name" : "Paul Bocuse", "street" : "40 Quai de la Plage", "zipcode" : "69660", "city" : "Collonges-au-Mont-d'Or", "tel" : "04 72 42 90 90" },
{ "name" : "Le Jardin des Remparts", "street" : "10 rue Hôtel-Dieu", "zipcode" : "21200", "city" : "Beaune", "tel" : "03 80 24 79 41" },
{ "name" : "Auberge de l'Île Barbe", "street" : "1 Place Notre-Dame", "zipcode" : "69009", "city" : "Lyon 09", "tel" : "04 78 83 99 49" },
{ "name" : "Le Saint-Estève", "street" : "2250 route cézanne D17", "zipcode" : "13100", "city" : "Le Tholonet", "tel" : "04 42 27 10 14" },
{ "name" : "Aigue Marine", "street" : "5 r. M. -Berthelot", "zipcode" : "22220", "city" : "Tréguier", "tel" : "02 96 92 97 00" },
{ "name" : "Le Restaurant", "street" : "13 rue des Beaux-Arts", "zipcode" : "75006", "city" : "Paris 06", "tel" : "01 44 41 99 01" },
{ "name" : "Le Jardin des Remparts", "street" : "10 rue Hôtel-Dieu", "zipcode" : "21200", "city" : "Beaune", "tel" : "03 80 24 79 41" },
{ "name" : "Le Saint-Estève", "street" : "2250 route cézanne D17", "zipcode" : "13100", "city" : "Le Tholonet", "tel" : "04 42 27 10 14" },
{ "name" : "Auberge de l'Île Barbe", "street" : "1 Place Notre-Dame", "zipcode" : "69009", "city" : "Lyon 09", "tel" : "04 78 83 99 49" },
{ "name" : "Le Clarence", "street" : "31 Avenue Franklin Delano Roosevelt", "zipcode" : "75008", "city" : "Paris 08", "tel" : "01 82 82 10 10" },
{ "name" : "L'Orangerie du Château", "street" : "1 Avenue du Docteur Jean Laigret", "zipcode" : "41000", "city" : "Blois", "tel" : "02 54 78 05 36" },
{ "name" : "Fanny Rey & Jonathan Wahid", "street" : "12, boulevard Mirabeau", "zipcode" : "13210", "city" : "SAINT REMY DE PROVENCE", "tel" : "04 90 92 15 33" },
{ "name" : "Le 39V", "street" : "39 Avenue George V", "zipcode" : "75008", "city" : "Paris 08", "tel" : "01 56 62 39 05" },
{ "name" : "Fanny Rey & Jonathan Wahid", "street" : "12, boulevard Mirabeau", "zipcode" : "13210", "city" : "SAINT REMY DE PROVENCE", "tel" : "04 90 92 15 33" },
{ "name" : "Auberge de l'Île Barbe", "street" : "1 Place Notre-Dame", "zipcode" : "69009", "city" : "Lyon 09", "tel" : "04 78 83 99 49" },
{ "name" : "Le Pré Catelan", "street" : "Route de Suresnes", "zipcode" : "75016", "city" : "Paris", "tel" : "01 44 14 41 14" },
{ "name" : "JY'S", "street" : "17 r. de la Poissonnerie", "zipcode" : "68000", "city" : "Colmar", "tel" : "03 89 21 53 60" },
{ "name" : "JY'S", "street" : "17 r. de la Poissonnerie", "zipcode" : "68000", "city" : "Colmar", "tel" : "03 89 21 53 60" },
{ "name" : "Fanny Rey & Jonathan Wahid", "street" : "12, boulevard Mirabeau", "zipcode" : "13210", "city" : "SAINT REMY DE PROVENCE", "tel" : "04 90 92 15 33" },
{ "name" : "L'Orangerie du Château", "street" : "1 Avenue du Docteur Jean Laigret", "zipcode" : "41000", "city" : "Blois", "tel" : "02 54 78 05 36" },
{ "name" : "Frédéric Doucet", "street" : "2 avenue de la Libération", "zipcode" : "71120", "city" : "Charolles", "tel" : "03 85 24 11 32" },
{ "name" : "Le 39V", "street" : "39 Avenue George V", "zipcode" : "75008", "city" : "Paris 08", "tel" : "01 56 62 39 05" },
{ "name" : "Le Clarence", "street" : "31 Avenue Franklin Delano Roosevelt", "zipcode" : "75008", "city" : "Paris 08", "tel" : "01 82 82 10 10" },
{ "name" : "Paul Bocuse", "street" : "40 Quai de la Plage", "zipcode" : "69660", "city" : "Collonges-au-Mont-d'Or", "tel" : "04 72 42 90 90" },
{ "name" : "Le Saint-Estève", "street" : "2250 route cézanne D17", "zipcode" : "13100", "city" : "Le Tholonet", "tel" : "04 42 27 10 14" },
{ "name" : "Fanny Rey & Jonathan Wahid", "street" : "12, boulevard Mirabeau", "zipcode" : "13210", "city" : "SAINT REMY DE PROVENCE", "tel" : "04 90 92 15 33" },
{ "name" : "Le Pré Catelan", "street" : "Route de Suresnes", "zipcode" : "75016", "city" : "Paris", "tel" : "01 44 14 41 14" },
{ "name" : "Le Jardin des Remparts", "street" : "10 rue Hôtel-Dieu", "zipcode" : "21200", "city" : "Beaune", "tel" : "03 80 24 79 41" },
{ "name" : "JY'S", "street" : "17 r. de la Poissonnerie", "zipcode" : "68000", "city" : "Colmar", "tel" : "03 89 21 53 60" },
{ "name" : "Agapé", "street" : "51 Rue Jouffroy-d'Abbans", "zipcode" : "75017", "city" : "Paris 17", "tel" : "01 42 27 20 18" },
{ "name" : "Le Jardin des Remparts", "street" : "10 rue Hôtel-Dieu", "zipcode" : "21200", "city" : "Beaune", "tel" : "03 80 24 79 41" },
{ "name" : "Agapé", "street" : "51 Rue Jouffroy-d'Abbans", "zipcode" : "75017", "city" : "Paris 17", "tel" : "01 42 27 20 18" },
{ "name" : "La Table de Franck Putelat", "street" : "80 chemin des Anglais", "zipcode" : "11000", "city" : "Carcassonne", "tel" : "04 68 71 80 80" },
{ "name" : "Paul Bocuse", "street" : "40 Quai de la Plage", "zipcode" : "69660", "city" : "Collonges-au-Mont-d'Or", "tel" : "04 72 42 90 90" },
{ "name" : "Aigue Marine", "street" : "5 r. M. -Berthelot", "zipcode" : "22220", "city" : "Tréguier", "tel" : "02 96 92 97 00" },
{ "name" : "Le Jardin des Remparts", "street" : "10 rue Hôtel-Dieu", "zipcode" : "21200", "city" : "Beaune", "tel" : "03 80 24 79 41" },
{ "name" : "Le Pré Catelan", "street" : "Route de Suresnes", "zipcode" : "75016", "city" : "Paris", "tel" : "01 44 14 41 14" },
{ "name" : "Aigue Marine", "street" : "5 r. M. -Berthelot", "zipcode" : "22220", "city" : "Tréguier", "tel" : "02 96 92 97 00" },
{ "name" : "Le Pré Catelan", "street" : "Route de Suresnes", "zipcode" : "75016", "city" : "Paris", "tel" : "01 44 14 41 14" },
{ "name" : "Frédéric Doucet", "street" : "2 avenue de la Libération", "zipcode" : "71120", "city" : "Charolles", "tel" : "03 85 24 11 32" },
{ "name" : "Fanny Rey & Jonathan Wahid", "street" : "12, boulevard Mirabeau", "zipcode" : "13210", "city" : "SAINT REMY DE PROVENCE", "tel" : "04 90 92 15 33" },
{ "name" : "Le Restaurant", "street" : "13 rue des Beaux-Arts", "zipcode" : "75006", "city" : "Paris 06", "tel" : "01 44 41 99 01" },
{ "name" : "Auberge de l'Île Barbe", "street" : "1 Place Notre-Dame", "zipcode" : "69009", "city" : "Lyon 09", "tel" : "04 78 83 99 49" },
{ "name" : "Restaurant du Palais Royal", "street" : "110 Galerie de Valois - Jardin du Palais Royal", "zipcode" : "75001", "city" : "Paris 01", "tel" : "01 40 20 00 27" },
{ "name" : "L'Orangerie du Château", "street" : "1 Avenue du Docteur Jean Laigret", "zipcode" : "41000", "city" : "Blois", "tel" : "02 54 78 05 36" },
{ "name" : "Agapé", "street" : "51 Rue Jouffroy-d'Abbans", "zipcode" : "75017", "city" : "Paris 17", "tel" : "01 42 27 20 18" },
{ "name" : "La Table de Franck Putelat", "street" : "80 chemin des Anglais", "zipcode" : "11000", "city" : "Carcassonne", "tel" : "04 68 71 80 80" },
{ "name" : "Aigue Marine", "street" : "5 r. M. -Berthelot", "zipcode" : "22220", "city" : "Tréguier", "tel" : "02 96 92 97 00" },
{ "name" : "Christophe Bacquié", "street" : "Hotel du Castellet Route des Hauts du Camp", "zipcode" : "83330", "city" : "Le Castellet", "tel" : "04 94 98 29 69" },
{ "name" : "Agapé", "street" : "51 Rue Jouffroy-d'Abbans", "zipcode" : "75017", "city" : "Paris 17", "tel" : "01 42 27 20 18" },
{ "name" : "Les Pêcheurs", "street" : "10 boulevard du Maréchal-Juin", "zipcode" : "06600", "city" : "Antibes", "tel" : "04 92 93 13 30" },
{ "name" : "Les Pêcheurs", "street" : "10 boulevard du Maréchal-Juin", "zipcode" : "06600", "city" : "Antibes", "tel" : "04 92 93 13 30" },
{ "name" : "La Table de Franck Putelat", "street" : "80 chemin des Anglais", "zipcode" : "11000", "city" : "Carcassonne", "tel" : "04 68 71 80 80" },
{ "name" : "La Table de Franck Putelat", "street" : "80 chemin des Anglais", "zipcode" : "11000", "city" : "Carcassonne", "tel" : "04 68 71 80 80" },
{ "name" : "Fanny Rey & Jonathan Wahid", "street" : "12, boulevard Mirabeau", "zipcode" : "13210", "city" : "SAINT REMY DE PROVENCE", "tel" : "04 90 92 15 33" },
{ "name" : "La Table de Franck Putelat", "street" : "80 chemin des Anglais", "zipcode" : "11000", "city" : "Carcassonne", "tel" : "04 68 71 80 80" },
{ "name" : "Les Pêcheurs", "street" : "10 boulevard du Maréchal-Juin", "zipcode" : "06600", "city" : "Antibes", "tel" : "04 92 93 13 30" },
{ "name" : "Le Saint-Estève", "street" : "2250 route cézanne D17", "zipcode" : "13100", "city" : "Le Tholonet", "tel" : "04 42 27 10 14" },
{ "name" : "Christophe Bacquié", "street" : "Hotel du Castellet Route des Hauts du Camp", "zipcode" : "83330", "city" : "Le Castellet", "tel" : "04 94 98 29 69" },
{ "name" : "Frédéric Doucet", "street" : "2 avenue de la Libération", "zipcode" : "71120", "city" : "Charolles", "tel" : "03 85 24 11 32" },
{ "name" : "Le Clarence", "street" : "31 Avenue Franklin Delano Roosevelt", "zipcode" : "75008", "city" : "Paris 08", "tel" : "01 82 82 10 10" },
{ "name" : "Le Clarence", "street" : "31 Avenue Franklin Delano Roosevelt", "zipcode" : "75008", "city" : "Paris 08", "tel" : "01 82 82 10 10" },
{ "name" : "Le Clarence", "street" : "31 Avenue Franklin Delano Roosevelt", "zipcode" : "75008", "city" : "Paris 08", "tel" : "01 82 82 10 10" },
{ "name" : "Auberge de l'Île Barbe", "street" : "1 Place Notre-Dame", "zipcode" : "69009", "city" : "Lyon 09", "tel" : "04 78 83 99 49" },
{ "name" : "Aigue Marine", "street" : "5 r. M. -Berthelot", "zipcode" : "22220", "city" : "Tréguier", "tel" : "02 96 92 97 00" },
{ "name" : "Le Jardin des Remparts", "street" : "10 rue Hôtel-Dieu", "zipcode" : "21200", "city" : "Beaune", "tel" : "03 80 24 79 41" },
{ "name" : "Aigue Marine", "street" : "5 r. M. -Berthelot", "zipcode" : "22220", "city" : "Tréguier", "tel" : "02 96 92 97 00" },
{ "name" : "Christophe Bacquié", "street" : "Hotel du Castellet Route des Hauts du Camp", "zipcode" : "83330", "city" : "Le Castellet", "tel" : "04 94 98 29 69" },
{ "name" : "Restaurant du Palais Royal", "street" : "110 Galerie de Valois - Jardin du Palais Royal", "zipcode" : "75001", "city" : "Paris 01", "tel" : "01 40 20 00 27" },
{ "name" : "La Table de Franck Putelat", "street" : "80 chemin des Anglais", "zipcode" : "11000", "city" : "Carcassonne", "tel" : "04 68 71 80 80" },
{ "name" : "Fanny Rey & Jonathan Wahid", "street" : "12, boulevard Mirabeau", "zipcode" : "13210", "city" : "SAINT REMY DE PROVENCE", "tel" : "04 90 92 15 33" },
{ "name" : "JY'S", "street" : "17 r. de la Poissonnerie", "zipcode" : "68000", "city" : "Colmar", "tel" : "03 89 21 53 60" },
{ "name" : "Le Clarence", "street" : "31 Avenue Franklin Delano Roosevelt", "zipcode" : "75008", "city" : "Paris 08", "tel" : "01 82 82 10 10" },
{ "name" : "Paul Bocuse", "street" : "40 Quai de la Plage", "zipcode" : "69660", "city" : "Collonges-au-Mont-d'Or", "tel" : "04 72 42 90 90" },
{ "name" : "Le Pré Catelan", "street" : "Route de Suresnes", "zipcode" : "75016", "city" : "Paris", "tel" : "01 44 14 41 14" },
{ "name" : "Les Pêcheurs", "street" : "10 boulevard du Maréchal-Juin", "zipcode" : "06600", "city" : "Antibes", "tel" : "04 92 93 13 30" },
{ "name" : "Le Pré Catelan", "street" : "Route de Suresnes", "zipcode" : "75016", "city" : "Paris", "tel" : "01 44 14 41 14" },
{ "name" : "Paul Bocuse", "street" : "40 Quai de la Plage", "zipcode" : "69660", "city" : "Collonges-au-Mont-d'Or", "tel" : "04 72 42 90 90" },
{ "name" : "La Table de Franck Putelat", "street" : "80 chemin des Anglais", "zipcode" : "11000", "city" : "Carcassonne", "tel" : "04 68 71 80 80" },
{ "name" : "Le Restaurant", "street" : "13 rue des Beaux-Arts", "zipcode" : "75006", "city" : "Paris 06", "tel" : "01 44 41 99 01" },
{ "name" : "Le 39V", "street" : "39 Avenue George V", "zipcode" : "75008", "city" : "Paris 08", "tel" : "01 56 62 39 05" },
{ "name" : "Frédéric Doucet", "street" : "2 avenue de la Libération", "zipcode" : "71120", "city" : "Charolles", "tel" : "03 85 24 11 32" },
{ "name" : "La Table de Franck Putelat", "street" : "80 chemin des Anglais", "zipcode" : "11000", "city" : "Carcassonne", "tel" : "04 68 71 80 80" },
{ "name" : "JY'S", "street" : "17 r. de la Poissonnerie", "zipcode" : "68000", "city" : "Colmar", "tel" : "03 89 21 53 60" },
{ "name" : "Le Restaurant", "street" : "13 rue des Beaux-Arts", "zipcode" : "75006", "city" : "Paris 06", "tel" : "01 44 41 99 01" },
{ "name" : "Paul Bocuse", "street" : "40 Quai de la Plage", "zipcode" : "69660", "city" : "Collonges-au-Mont-d'Or", "tel" : "04 72 42 90 90" },
{ "name" : "Les Pêcheurs", "street" : "10 boulevard du Maréchal-Juin", "zipcode" : "06600", "city" : "Antibes", "tel" : "04 92 93 13 30" },
{ "name" : "JY'S", "street" : "17 r. de la Poissonnerie", "zipcode" : "68000", "city" : "Colmar", "tel" : "03 89 21 53 60" },
{ "name" : "Le Restaurant", "street" : "13 rue des Beaux-Arts", "zipcode" : "75006", "city" : "Paris 06", "tel" : "01 44 41 99 01" },
{ "name" : "Le Restaurant", "street" : "13 rue des Beaux-Arts", "zipcode" : "75006", "city" : "Paris 06", "tel" : "01 44 41 99 01" },
{ "name" : "JY'S", "street" : "17 r. de la Poissonnerie", "zipcode" : "68000", "city" : "Colmar", "tel" : "03 89 21 53 60" },
{ "name" : "Le 39V", "street" : "39 Avenue George V", "zipcode" : "75008", "city" : "Paris 08", "tel" : "01 56 62 39 05" },
{ "name" : "Le Saint-Estève", "street" : "2250 route cézanne D17", "zipcode" : "13100", "city" : "Le Tholonet", "tel" : "04 42 27 10 14" },
{ "name" : "Paul Bocuse", "street" : "40 Quai de la Plage", "zipcode" : "69660", "city" : "Collonges-au-Mont-d'Or", "tel" : "04 72 42 90 90" },
{ "name" : "Agapé", "street" : "51 Rue Jouffroy-d'Abbans", "zipcode" : "75017", "city" : "Paris 17", "tel" : "01 42 27 20 18" },
{ "name" : "Le Jardin des Remparts", "street" : "10 rue Hôtel-Dieu", "zipcode" : "21200", "city" : "Beaune", "tel" : "03 80 24 79 41" },
{ "name" : "Christophe Bacquié", "street" : "Hotel du Castellet Route des Hauts du Camp", "zipcode" : "83330", "city" : "Le Castellet", "tel" : "04 94 98 29 69" },
{ "name" : "Le Restaurant", "street" : "13 rue des Beaux-Arts", "zipcode" : "75006", "city" : "Paris 06", "tel" : "01 44 41 99 01" },
{ "name" : "Le Saint-Estève", "street" : "2250 route cézanne D17", "zipcode" : "13100", "city" : "Le Tholonet", "tel" : "04 42 27 10 14" },
{ "name" : "Frédéric Doucet", "street" : "2 avenue de la Libération", "zipcode" : "71120", "city" : "Charolles", "tel" : "03 85 24 11 32" },
{ "name" : "Agapé", "street" : "51 Rue Jouffroy-d'Abbans", "zipcode" : "75017", "city" : "Paris 17", "tel" : "01 42 27 20 18" },
{ "name" : "Le Jardin des Remparts", "street" : "10 rue Hôtel-Dieu", "zipcode" : "21200", "city" : "Beaune", "tel" : "03 80 24 79 41" },
{ "name" : "Le Clarence", "street" : "31 Avenue Franklin Delano Roosevelt", "zipcode" : "75008", "city" : "Paris 08", "tel" : "01 82 82 10 10" },
{ "name" : "Frédéric Doucet", "street" : "2 avenue de la Libération", "zipcode" : "71120", "city" : "Charolles", "tel" : "03 85 24 11 32" },
{ "name" : "Le Saint-Estève", "street" : "2250 route cézanne D17", "zipcode" : "13100", "city" : "Le Tholonet", "tel" : "04 42 27 10 14" },
{ "name" : "Le Pré Catelan", "street" : "Route de Suresnes", "zipcode" : "75016", "city" : "Paris", "tel" : "01 44 14 41 14" },
{ "name" : "Le Saint-Estève", "street" : "2250 route cézanne D17", "zipcode" : "13100", "city" : "Le Tholonet", "tel" : "04 42 27 10 14" },
{ "name" : "Le Jardin des Remparts", "street" : "10 rue Hôtel-Dieu", "zipcode" : "21200", "city" : "Beaune", "tel" : "03 80 24 79 41" },
{ "name" : "JY'S", "street" : "17 r. de la Poissonnerie", "zipcode" : "68000", "city" : "Colmar", "tel" : "03 89 21 53 60" },
{ "name" : "Le 39V", "street" : "39 Avenue George V", "zipcode" : "75008", "city" : "Paris 08", "tel" : "01 56 62 39 05" },
{ "name" : "Le Pré Catelan", "street" : "Route de Suresnes", "zipcode" : "75016", "city" : "Paris", "tel" : "01 44 14 41 14" },
{ "name" : "Le Clarence", "street" : "31 Avenue Franklin Delano Roosevelt", "zipcode" : "75008", "city" : "Paris 08", "tel" : "01 82 82 10 10" },
{ "name" : "Le Jardin des Remparts", "street" : "10 rue Hôtel-Dieu", "zipcode" : "21200", "city" : "Beaune", "tel" : "03 80 24 79 41" },
{ "name" : "Restaurant du Palais Royal", "street" : "110 Galerie de Valois - Jardin du Palais Royal", "zipcode" : "75001", "city" : "Paris 01", "tel" : "01 40 20 00 27" },
{ "name" : "Restaurant du Palais Royal", "street" : "110 Galerie de Valois - Jardin du Palais Royal", "zipcode" : "75001", "city" : "Paris 01", "tel" : "01 40 20 00 27" },
{ "name" : "Le Clarence", "street" : "31 Avenue Franklin Delano Roosevelt", "zipcode" : "75008", "city" : "Paris 08", "tel" : "01 82 82 10 10" },
{ "name" : "Aigue Marine", "street" : "5 r. M. -Berthelot", "zipcode" : "22220", "city" : "Tréguier", "tel" : "02 96 92 97 00" },
{ "name" : "Agapé", "street" : "51 Rue Jouffroy-d'Abbans", "zipcode" : "75017", "city" : "Paris 17", "tel" : "01 42 27 20 18" },
{ "name" : "La Table de Franck Putelat", "street" : "80 chemin des Anglais", "zipcode" : "11000", "city" : "Carcassonne", "tel" : "04 68 71 80 80" },
{ "name" : "L'Orangerie du Château", "street" : "1 Avenue du Docteur Jean Laigret", "zipcode" : "41000", "city" : "Blois", "tel" : "02 54 78 05 36" },
{ "name" : "JY'S", "street" : "17 r. de la Poissonnerie", "zipcode" : "68000", "city" : "Colmar", "tel" : "03 89 21 53 60" },
{ "name" : "Le Pré Catelan", "street" : "Route de Suresnes", "zipcode" : "75016", "city" : "Paris", "tel" : "01 44 14 41 14" },
{ "name" : "Les Pêcheurs", "street" : "10 boulevard du Maréchal-Juin", "zipcode" : "06600", "city" : "Antibes", "tel" : "04 92 93 13 30" },
{ "name" : "Paul Bocuse", "street" : "40 Quai de la Plage", "zipcode" : "69660", "city" : "Collonges-au-Mont-d'Or", "tel" : "04 72 42 90 90" },
{ "name" : "Aigue Marine", "street" : "5 r. M. -Berthelot", "zipcode" : "22220", "city" : "Tréguier", "tel" : "02 96 92 97 00" },
{ "name" : "Le Restaurant", "street" : "13 rue des Beaux-Arts", "zipcode" : "75006", "city" : "Paris 06", "tel" : "01 44 41 99 01" },
{ "name" : "L'Orangerie du Château", "street" : "1 Avenue du Docteur Jean Laigret", "zipcode" : "41000", "city" : "Blois", "tel" : "02 54 78 05 36" },
{ "name" : "Auberge de l'Île Barbe", "street" : "1 Place Notre-Dame", "zipcode" : "69009", "city" : "Lyon 09", "tel" : "04 78 83 99 49" },
{ "name" : "JY'S", "street" : "17 r. de la Poissonnerie", "zipcode" : "68000", "city" : "Colmar", "tel" : "03 89 21 53 60" },
{ "name" : "Le Restaurant", "street" : "13 rue des Beaux-Arts", "zipcode" : "75006", "city" : "Paris 06", "tel" : "01 44 41 99 01" },
{ "name" : "Agapé", "street" : "51 Rue Jouffroy-d'Abbans", "zipcode" : "75017", "city" : "Paris 17", "tel" : "01 42 27 20 18" },
{ "name" : "Fanny Rey & Jonathan Wahid", "street" : "12, boulevard Mirabeau", "zipcode" : "13210", "city" : "SAINT REMY DE PROVENCE", "tel" : "04 90 92 15 33" },
{ "name" : "Christophe Bacquié", "street" : "Hotel du Castellet Route des Hauts du Camp", "zipcode" : "83330", "city" : "Le Castellet", "tel" : "04 94 98 29 69" },
{ "name" : "JY'S", "street" : "17 r. de la Poissonnerie", "zipcode" : "68000", "city" : "Colmar", "tel" : "03 89 21 53 60" },
{ "name" : "Paul Bocuse", "street" : "40 Quai de la Plage", "zipcode" : "69660", "city" : "Collonges-au-Mont-d'Or", "tel" : "04 72 42 90 90" },
{ "name" : "Fanny Rey & Jonathan Wahid", "street" : "12, boulevard Mirabeau", "zipcode" : "13210", "city" : "SAINT REMY DE PROVENCE", "tel" : "04 90 92 15 33" },
{ "name" : "Les Pêcheurs", "street" : "10 boulevard du Maréchal-Juin", "zipcode" : "06600", "city" : "Antibes", "tel" : "04 92 93 13 30" },
{ "name" : "Restaurant du Palais Royal", "street" : "110 Galerie de Valois - Jardin du Palais Royal", "zipcode" : "75001", "city" : "Paris 01", "tel" : "01 40 20 00 27" },
{ "name" : "La Table de Franck Putelat", "street" : "80 chemin des Anglais", "zipcode" : "11000", "city" : "Carcassonne", "tel" : "04 68 71 80 80" },
{ "name" : "Le Clarence", "street" : "31 Avenue Franklin Delano Roosevelt", "zipcode" : "75008", "city" : "Paris 08", "tel" : "01 82 82 10 10" },
{ "name" : "L'Orangerie du Château", "street" : "1 Avenue du Docteur Jean Laigret", "zipcode" : "41000", "city" : "Blois", "tel" : "02 54 78 05 36" },
{ "name" : "Le Saint-Estève", "street" : "2250 route cézanne D17", "zipcode" : "13100", "city" : "Le Tholonet", "tel" : "04 42 27 10 14" },
{ "name" : "Restaurant du Palais Royal", "street" : "110 Galerie de Valois - Jardin du Palais Royal", "zipcode" : "75001", "city" : "Paris 01", "tel" : "01 40 20 00 27" },
{ "name" : "Christophe Bacquié", "street" : "Hotel du Castellet Route des Hauts du Camp", "zipcode" : "83330", "city" : "Le Castellet", "tel" : "04 94 98 29 69" },
{ "name" : "Le Clarence", "street" : "31 Avenue Franklin Delano Roosevelt", "zipcode" : "75008", "city" : "Paris 08", "tel" : "01 82 82 10 10" },
{ "name" : "Le Pré Catelan", "street" : "Route de Suresnes", "zipcode" : "75016", "city" : "Paris", "tel" : "01 44 14 41 14" },
{ "name" : "L'Orangerie du Château", "street" : "1 Avenue du Docteur Jean Laigret", "zipcode" : "41000", "city" : "Blois", "tel" : "02 54 78 05 36" },
{ "name" : "Le Restaurant", "street" : "13 rue des Beaux-Arts", "zipcode" : "75006", "city" : "Paris 06", "tel" : "01 44 41 99 01" },
{ "name" : "Les Pêcheurs", "street" : "10 boulevard du Maréchal-Juin", "zipcode" : "06600", "city" : "Antibes", "tel" : "04 92 93 13 30" },
{ "name" : "Frédéric Doucet", "street" : "2 avenue de la Libération", "zipcode" : "71120", "city" : "Charolles", "tel" : "03 85 24 11 32" },
{ "name" : "Le Jardin des Remparts", "street" : "10 rue Hôtel-Dieu", "zipcode" : "21200", "city" : "Beaune", "tel" : "03 80 24 79 41" },
{ "name" : "Le 39V", "street" : "39 Avenue George V", "zipcode" : "75008", "city" : "Paris 08", "tel" : "01 56 62 39 05" },
{ "name" : "Le Clarence", "street" : "31 Avenue Franklin Delano Roosevelt", "zipcode" : "75008", "city" : "Paris 08", "tel" : "01 82 82 10 10" },
{ "name" : "Restaurant du Palais Royal", "street" : "110 Galerie de Valois - Jardin du Palais Royal", "zipcode" : "75001", "city" : "Paris 01", "tel" : "01 40 20 00 27" },
{ "name" : "Auberge de l'Île Barbe", "street" : "1 Place Notre-Dame", "zipcode" : "69009", "city" : "Lyon 09", "tel" : "04 78 83 99 49" },
{ "name" : "Auberge de l'Île Barbe", "street" : "1 Place Notre-Dame", "zipcode" : "69009", "city" : "Lyon 09", "tel" : "04 78 83 99 49" },
{ "name" : "Christophe Bacquié", "street" : "Hotel du Castellet Route des Hauts du Camp", "zipcode" : "83330", "city" : "Le Castellet", "tel" : "04 94 98 29 69" },
{ "name" : "La Table de Franck Putelat", "street" : "80 chemin des Anglais", "zipcode" : "11000", "city" : "Carcassonne", "tel" : "04 68 71 80 80" },
{ "name" : "Le Saint-Estève", "street" : "2250 route cézanne D17", "zipcode" : "13100", "city" : "Le Tholonet", "tel" : "04 42 27 10 14" },
{ "name" : "Restaurant du Palais Royal", "street" : "110 Galerie de Valois - Jardin du Palais Royal", "zipcode" : "75001", "city" : "Paris 01", "tel" : "01 40 20 00 27" },
{ "name" : "L'Orangerie du Château", "street" : "1 Avenue du Docteur Jean Laigret", "zipcode" : "41000", "city" : "Blois", "tel" : "02 54 78 05 36" },
{ "name" : "Le Saint-Estève", "street" : "2250 route cézanne D17", "zipcode" : "13100", "city" : "Le Tholonet", "tel" : "04 42 27 10 14" },
{ "name" : "Le 39V", "street" : "39 Avenue George V", "zipcode" : "75008", "city" : "Paris 08", "tel" : "01 56 62 39 05" },
{ "name" : "Frédéric Doucet", "street" : "2 avenue de la Libération", "zipcode" : "71120", "city" : "Charolles", "tel" : "03 85 24 11 32" },
{ "name" : "Agapé", "street" : "51 Rue Jouffroy-d'Abbans", "zipcode" : "75017", "city" : "Paris 17", "tel" : "01 42 27 20 18" },
{ "name" : "Frédéric Doucet", "street" : "2 avenue de la Libération", "zipcode" : "71120", "city" : "Charolles", "tel" : "03 85 24 11 32" },
{ "name" : "Christophe Bacquié", "street" : "Hotel du Castellet Route des Hauts du Camp", "zipcode" : "83330", "city" : "Le Castellet", "tel" : "04 94 98 29 69" },
{ "name" : "Le 39V", "street" : "39 Avenue George V", "zipcode" : "75008", "city" : "Paris 08", "tel" : "01 56 62 39 05" },
{ "name" : "JY'S", "street" : "17 r. de la Poissonnerie", "zipcode" : "68000", "city" : "Colmar", "tel" : "03 89 21 53 60" },
{ "name" : "Les Pêcheurs", "street" : "10 boulevard du Maréchal-Juin", "zipcode" : "06600", "city" : "Antibes", "tel" : "04 92 93 13 30" },
{ "name" : "Les Pêcheurs", "street" : "10 boulevard du Maréchal-Juin", "zipcode" : "06600", "city" : "Antibes", "tel" : "04 92 93 13 30" },
{ "name" : "Fanny Rey & Jonathan Wahid", "street" : "12, boulevard Mirabeau", "zipcode" : "13210", "city" : "SAINT REMY DE PROVENCE", "tel" : "04 90 92 15 33" },
{ "name" : "Fanny Rey & Jonathan Wahid", "street" : "12, boulevard Mirabeau", "zipcode" : "13210", "city" : "SAINT REMY DE PROVENCE", "tel" : "04 90 92 15 33" },
{ "name" : "L'Orangerie du Château", "street" : "1 Avenue du Docteur Jean Laigret", "zipcode" : "41000", "city" : "Blois", "tel" : "02 54 78 05 36" },
{ "name" : "Les Pêcheurs", "street" : "10 boulevard du Maréchal-Juin", "zipcode" : "06600", "city" : "Antibes", "tel" : "04 92 93 13 30" },
{ "name" : "Les Pêcheurs", "street" : "10 boulevard du Maréchal-Juin", "zipcode" : "06600", "city" : "Antibes", "tel" : "04 92 93 13 30" },
{ "name" : "Paul Bocuse", "street" : "40 Quai de la Plage", "zipcode" : "69660", "city" : "Collonges-au-Mont-d'Or", "tel" : "04 72 42 90 90" },
{ "name" : "Aigue Marine", "street" : "5 r. M. -Berthelot", "zipcode" : "22220", "city" : "Tréguier", "tel" : "02 96 92 97 00" },
{ "name" : "L'Orangerie du Château", "street" : "1 Avenue du Docteur Jean Laigret", "zipcode" : "41000", "city" : "Blois", "tel" : "02 54 78 05 36" },
{ "name" : "Le 39V", "street" : "39 Avenue George V", "zipcode" : "75008", "city" : "Paris 08", "tel" : "01 56 62 39 05" },
{ "name" : "Frédéric Doucet", "street" : "2 avenue de la Libération", "zipcode" : "71120", "city" : "Charolles", "tel" : "03 85 24 11 32" },
{ "name" : "Le 39V", "street" : "39 Avenue George V", "zipcode" : "75008", "city" : "Paris 08", "tel" : "01 56 62 39 05" },
{ "name" : "Agapé", "street" : "51 Rue Jouffroy-d'Abbans", "zipcode" : "75017", "city" : "Paris 17", "tel" : "01 42 27 20 18" },
{ "name" : "La Table de Franck Putelat", "street" : "80 chemin des Anglais", "zipcode" : "11000", "city" : "Carcassonne", "tel" : "04 68 71 80 80" },
{ "name" : "Fanny Rey & Jonathan Wahid", "street" : "12, boulevard Mirabeau", "zipcode" : "13210", "city" : "SAINT REMY DE PROVENCE", "tel" : "04 90 92 15 33" },
{ "name" : "Les Pêcheurs", "street" : "10 boulevard du Maréchal-Juin", "zipcode" : "06600", "city" : "Antibes", "tel" : "04 92 93 13 30" },
{ "name" : "Aigue Marine", "street" : "5 r. M. -Berthelot", "zipcode" : "22220", "city" : "Tréguier", "tel" : "02 96 92 97 00" },
{ "name" : "Auberge de l'Île Barbe", "street" : "1 Place Notre-Dame", "zipcode" : "69009", "city" : "Lyon 09", "tel" : "04 78 83 99 49" },
{ "name" : "L'Orangerie du Château", "street" : "1 Avenue du Docteur Jean Laigret", "zipcode" : "41000", "city" : "Blois", "tel" : "02 54 78 05 36" },
{ "name" : "Agapé", "street" : "51 Rue Jouffroy-d'Abbans", "zipcode" : "75017", "city" : "Paris 17", "tel" : "01 42 27 20 18" },
{ "name" : "Auberge de l'Île Barbe", "street" : "1 Place Notre-Dame", "zipcode" : "69009", "city" : "Lyon 09", "tel" : "04 78 83 99 49" },
{ "name" : "Christophe Bacquié", "street" : "Hotel du Castellet Route des Hauts du Camp", "zipcode" : "83330", "city" : "Le Castellet", "tel" : "04 94 98 29 69" },
{ "name" : "Agapé", "street" : "51 Rue Jouffroy-d'Abbans", "zipcode" : "75017", "city" : "Paris 17", "tel" : "01 42 27 20 18" },
{ "name" : "Le 39V", "street" : "39 Avenue George V", "zipcode" : "75008", "city" : "Paris 08", "tel" : "01 56 62 39 05" },
{ "name" : "Christophe Bacquié", "street" : "Hotel du Castellet Route des Hauts du Camp", "zipcode" : "83330", "city" : "Le Castellet", "tel" : "04 94 98 29 69" },
{ "name" : "Restaurant du Palais Royal", "street" : "110 Galerie de Valois - Jardin du Palais Royal", "zipcode" : "75001", "city" : "Paris 01", "tel" : "01 40 20 00 27" },
{ "name" : "La Table de Franck Putelat", "street" : "80 chemin des Anglais", "zipcode" : "11000", "city" : "Carcassonne", "tel" : "04 68 71 80 80" },
{ "name" : "L'Orangerie du Château", "street" : "1 Avenue du Docteur Jean Laigret", "zipcode" : "41000", "city" : "Blois", "tel" : "02 54 78 05 36" },
{ "name" : "Restaurant du Palais Royal", "street" : "110 Galerie de Valois - Jardin du Palais Royal", "zipcode" : "75001", "city" : "Paris 01", "tel" : "01 40 20 00 27" },
{ "name" : "Le Clarence", "street" : "31 Avenue Franklin Delano Roosevelt", "zipcode" : "75008", "city" : "Paris 08", "tel" : "01 82 82 10 10" },
{ "name" : "L'Orangerie du Château", "street" : "1 Avenue du Docteur Jean Laigret", "zipcode" : "41000", "city" : "Blois", "tel" : "02 54 78 05 36" },
{ "name" : "Agapé", "street" : "51 Rue Jouffroy-d'Abbans", "zipcode" : "75017", "city" : "Paris 17", "tel" : "01 42 27 20 18" },
{ "name" : "Les Pêcheurs", "street" : "10 boulevard du Maréchal-Juin", "zipcode" : "06600", "city" : "Antibes", "tel" : "04 92 93 13 30" },
{ "name" : "Le Restaurant", "street" : "13 rue des Beaux-Arts", "zipcode" : "75006", "city" : "Paris 06", "tel" : "01 44 41 99 01" },
{ "name" : "Auberge de l'Île Barbe", "street" : "1 Place Notre-Dame", "zipcode" : "69009", "city" : "Lyon 09", "tel" : "04 78 83 99 49" },
{ "name" : "Frédéric Doucet", "street" : "2 avenue de la Libération", "zipcode" : "71120", "city" : "Charolles", "tel" : "03 85 24 11 32" },
{ "name" : "Paul Bocuse", "street" : "40 Quai de la Plage", "zipcode" : "69660", "city" : "Collonges-au-Mont-d'Or", "tel" : "04 72 42 90 90" },
{ "name" : "Le Pré Catelan", "street" : "Route de Suresnes", "zipcode" : "75016", "city" : "Paris", "tel" : "01 44 14 41 14" },
{ "name" : "Restaurant du Palais Royal", "street" : "110 Galerie de Valois - Jardin du Palais Royal", "zipcode" : "75001", "city" : "Paris 01", "tel" : "01 40 20 00 27" },
{ "name" : "Restaurant du Palais Royal", "street" : "110 Galerie de Valois - Jardin du Palais Royal", "zipcode" : "75001", "city" : "Paris 01", "tel" : "01 40 20 00 27" },
{ "name" : "Agapé", "street" : "51 Rue Jouffroy-d'Abbans", "zipcode" : "75017", "city" : "Paris 17", "tel" : "01 42 27 20 18" },
{ "name" : "Aigue Marine", "street" : "5 r. M. -Berthelot", "zipcode" : "22220", "city" : "Tréguier", "tel" : "02 96 92 97 00" },
{ "name" : "Fanny Rey & Jonathan Wahid", "street" : "12, boulevard Mirabeau", "zipcode" : "13210", "city" : "SAINT REMY DE PROVENCE", "tel" : "04 90 92 15 33" },
{ "name" : "Le 39V", "street" : "39 Avenue George V", "zipcode" : "75008", "city" : "Paris 08", "tel" : "01 56 62 39 05" },
{ "name" : "Christophe Bacquié", "street" : "Hotel du Castellet Route des Hauts du Camp", "zipcode" : "83330", "city" : "Le Castellet", "tel" : "04 94 98 29 69" },
{ "name" : "La Table de Franck Putelat", "street" : "80 chemin des Anglais", "zipcode" : "11000", "city" : "Carcassonne", "tel" : "04 68 71 80 80" },
{ "name" : "Paul Bocuse", "street" : "40 Quai de la Plage", "zipcode" : "69660", "city" : "Collonges-au-Mont-d'Or", "tel" : "04 72 42 90 90" },
{ "name" : "Restaurant du Palais Royal", "street" : "110 Galerie de Valois - Jardin du Palais Royal", "zipcode" : "75001", "city" : "Paris 01", "tel" : "01 40 20 00 27" },
{ "name" : "Le Restaurant", "street" : "13 rue des Beaux-Arts", "zipcode" : "75006", "city" : "Paris 06", "tel" : "01 44 41 99 01" },
{ "name" : "Christophe Bacquié", "street" : "Hotel du Castellet Route des Hauts du Camp", "zipcode" : "83330", "city" : "Le Castellet", "tel" : "04 94 98 29 69" },
{ "name" : "Restaurant du Palais Royal", "street" : "110 Galerie de Valois - Jardin du Palais Royal", "zipcode" : "75001", "city" : "Paris 01", "tel" : "01 40 20 00 27" },
{ "name" : "Le 39V", "street" : "39 Avenue George V", "zipcode" : "75008", "city" : "Paris 08", "tel" : "01 56 62 39 05" },
{ "name" : "Restaurant du Palais Royal", "street" : "110 Galerie de Valois - Jardin du Palais Royal", "zipcode" : "75001", "city" : "Paris 01", "tel" : "01 40 20 00 27" },
{ "name" : "Auberge de l'Île Barbe", "street" : "1 Place Notre-Dame", "zipcode" : "69009", "city" : "Lyon 09", "tel" : "04 78 83 99 49" },
{ "name" : "Le Saint-Estève", "street" : "2250 route cézanne D17", "zipcode" : "13100", "city" : "Le Tholonet", "tel" : "04 42 27 10 14" },
{ "name" : "Aigue Marine", "street" : "5 r. M. -Berthelot", "zipcode" : "22220", "city" : "Tréguier", "tel" : "02 96 92 97 00" },
{ "name" : "Frédéric Doucet", "street" : "2 avenue de la Libération", "zipcode" : "71120", "city" : "Charolles", "tel" : "03 85 24 11 32" },
{ "name" : "Auberge de l'Île Barbe", "street" : "1 Place Notre-Dame", "zipcode" : "69009", "city" : "Lyon 09", "tel" : "04 78 83 99 49" },
{ "name" : "Christophe Bacquié", "street" : "Hotel du Castellet Route des Hauts du Camp", "zipcode" : "83330", "city" : "Le Castellet", "tel" : "04 94 98 29 69" },
{ "name" : "Christophe Bacquié", "street" : "Hotel du Castellet Route des Hauts du Camp", "zipcode" : "83330", "city" : "Le Castellet", "tel" : "04 94 98 29 69" },
{ "name" : "L'Orangerie du Château", "street" : "1 Avenue du Docteur Jean Laigret", "zipcode" : "41000", "city" : "Blois", "tel" : "02 54 78 05 36" },
{ "name" : "Auberge de l'Île Barbe", "street" : "1 Place Notre-Dame", "zipcode" : "69009", "city" : "Lyon 09", "tel" : "04 78 83 99 49" },
{ "name" : "Frédéric Doucet", "street" : "2 avenue de la Libération", "zipcode" : "71120", "city" : "Charolles", "tel" : "03 85 24 11 32" },
{ "name" : "Le Pré Catelan", "street" : "Route de Suresnes", "zipcode" : "75016", "city" : "Paris", "tel" : "01 44 14 41 14" },
{ "name" : "Paul Bocuse", "street" : "40 Quai de la Plage", "zipcode" : "69660", "city" : "Collonges-au-Mont-d'Or", "tel" : "04 72 42 90 90" },
{ "name" : "Le Pré Catelan", "street" : "Route de Suresnes", "zipcode" : "75016", "city" : "Paris", "tel" : "01 44 14 41 14" },
{ "name" : "JY'S", "street" : "17 r. de la Poissonnerie", "zipcode" : "68000", "city" : "Colmar", "tel" : "03 89 21 53 60" },
{ "name" : "Le Saint-Estève", "street" : "2250 route cézanne D17", "zipcode" : "13100", "city" : "Le Tholonet", "tel" : "04 42 27 10 14" },
{ "name" : "Le Restaurant", "street" : "13 rue des Beaux-Arts", "zipcode" : "75006", "city" : "Paris 06", "tel" : "01 44 41 99 01" },
{ "name" : "Aigue Marine", "street" : "5 r. M. -Berthelot", "zipcode" : "22220", "city" : "Tréguier", "tel" : "02 96 92 97 00" },
{ "name" : "Le Saint-Estève", "street" : "2250 route cézanne D17", "zipcode" : "13100", "city" : "Le Tholonet", "tel" : "04 42 27 10 14" },
{ "name" : "JY'S", "street" : "17 r. de la Poissonnerie", "zipcode" : "68000", "city" : "Colmar", "tel" : "03 89 21 53 60" },
{ "name" : "Le Pré Catelan", "street" : "Route de Suresnes", "zipcode" : "75016", "city" : "Paris", "tel" : "01 44 14 41 14" },
{ "name" : "Le Jardin des Remparts", "street" : "10 rue Hôtel-Dieu", "zipcode" : "21200", "city" : "Beaune", "tel" : "03 80 24 79 41" },
{ "name" : "Fanny Rey & Jonathan Wahid", "street" : "12, boulevard Mirabeau", "zipcode" : "13210", "city" : "SAINT REMY DE PROVENCE", "tel" : "04 90 92 15 33" },
{ "name" : "Le Restaurant", "street" : "13 rue des Beaux-Arts", "zipcode" : "75006", "city" : "Paris 06", "tel" : "01 44 41 99 01" },
{ "name" : "Le Jardin des Remparts", "street" : "10 rue Hôtel-Dieu", "zipcode" : "21200", "city" : "Beaune", "tel" : "03 80 24 79 41" },
{ "name" : "Le Saint-Estève", "street" : "2250 route cézanne D17", "zipcode" : "13100", "city" : "Le Tholonet", "tel" : "04 42 27 10 14" },
{ "name" : "Le Clarence", "street" : "31 Avenue Franklin Delano Roosevelt", "zipcode" : "75008", "city" : "Paris 08", "tel" : "01 82 82 10 10" },
{ "name" : "Paul Bocuse", "street" : "40 Quai de la Plage", "zipcode" : "69660", "city" : "Collonges-au-Mont-d'Or", "tel" : "04 72 42 90 90" },
{ "name" : "Paul Bocuse", "street" : "40 Quai de la Plage", "zipcode" : "69660", "city" : "Collonges-au-Mont-d'Or", "tel" : "04 72 42 90 90" },
{ "name" : "Aigue Marine", "street" : "5 r. M. -Berthelot", "zipcode" : "22220", "city" : "Tréguier", "tel" : "02 96 92 97 00" },
{ "name" : "Le Jardin des Remparts", "street" : "10 rue Hôtel-Dieu", "zipcode" : "21200", "city" : "Beaune", "tel" : "03 80 24 79 41" },
{ "name" : "Fanny Rey & Jonathan Wahid", "street" : "12, boulevard Mirabeau", "zipcode" : "13210", "city" : "SAINT REMY DE PROVENCE", "tel" : "04 90 92 15 33" },
